puissance_crete;surface;pente;pente_optimum;orientation;orientation_optimum;installateur;production_pvgis;lat;lon;postal_code
2176;16;20;37;10;-4;SPER;2468;45.62;4.04;42600
2990;21;30;36;10;0;KBE Solaire;3364;45.16;5.83;38410
2300;25;30;36;30;9;PIE ENERGIES;2680;45.22;5.68;38120
2150;13;40;;Sud;;SEROL Bernard;0;46.05;4.05;42153
2700;25;25;36;-10;1;A l Eau Solaire;3169;45.67;5.14;38290
2800;21;20;36;Sud;1;R. LEPARGNEUR;3269;45.64;5.00;69780
3000;25;25;35;-70;1;R.LEPARGNEUR;2944;45.42;4.32;42230
540;6;60;34;-20;-21;AUTO INSTALLATION;558;45.25;5.59;38360
1980;20;20;;Sud;;Solaris-enr;0;45.54;4.96;38780
2100;16;25;37;10;1;123 Solaire;2492;45.73;4.96;69680
2580;18;30;;65;;Solaire Energies systemes;0;45.44;5.40;38690
2800;21;15;36;-5;-16;EDEV-EnR / Photonpow;3140;45.21;5.65;38360
1240;10;25;;65;;ECO LOGIQUE;0;45.55;4.96;38780
1020;8;30;34;-20;-21;Pi energies;1131;45.25;5.59;38360
2520;16;20;35;10;-5;FL Energie;2735;45.27;4.49;42220
2640;22;30;36;Sud;-1;Moulin Jean michel;2982;46.03;4.10;42120
9600;72;20;37;Sud;-2;BS AUTOMATION;10838;45.77;4.02;42130
2550;20;25;;-90;;VSA Vent Solaire Application;0;45.76;4.92;69120
2970;24;35;37;Sud;1;SADEJA SOLAIRE;3582;45.76;5.01;69330
3120;22;30;36;-5;1;EPB Gacon Jacky;3656;45.10;5.72;38800
1400;10;25;37;90;0;ENERCOS technologies;1379;45.73;4.88;69008
1980;15;25;;40;;Pi energies;0;45.26;5.86;38190
2800;21;20;37;35;0;Solaris-enr;3131;45.80;4.71;69890
1260;10;30;;Sud;;Energies Economies Solutions;0;45.18;5.70;38000
58190;435;20;37;-40;-1;Photowatt;64388;45.61;4.70;69440
2430;19;25;37;-25;0;VSA vent solaire app;2804;45.66;4.77;69390
2975;23;25;38;-40;-16;ENERCOS technologies;3265;45.29;5.89;38920
2520;19;30;37;-30;-1;Odislor Energy;2792;46.03;4.07;42300
3060;0;30;;Sud;;Enersun;0;45.77;4.87;69100
30000;243;20;36;-15;-1;EPB Gacon Jacky;34096;45.31;5.25;38870
3000;24;25;38;-40;-11;Cermelec;3295;45.27;5.86;38920
2800;21;25;36;Sud;2;SADEJA SOLAIRE;3215;46.19;5.28;1250
2970;27;25;36;-35;1;EPB Solaire;3385;45.52;5.25;38300
3000;22;20;37;Sud;1;SADEJA SOLAIRE;3514;45.92;4.95;1390
4750;35;20;;20;;ACFER SARL;0;45.95;5.33;1500
2580;18;40;;Sud;;Solaire Energies systemes;0;45.32;5.25;38870
3000;24;20;36;-45;-1;ETERA : www.etera.fr/;3174;45.40;4.29;42700
2940;20;35;37;Sud;-1;SADEJA SOLAIRE;3408;46.21;5.51;1460
2100;16;20;36;-5;-2;FL Energie;2356;45.55;4.61;42800
2500;20;30;38;-40;-12;Cermelec;2767;45.27;5.86;38920
2860;24;20;36;25;0;SMEB;3329;45.48;5.22;38440
2884;23;30;37;-40;1;R. LEPARGNEUR;3297;45.75;4.94;69150
3000;25;30;36;Sud;-1;ALEC Balbins;3492;45.32;5.26;38870
2760;18;40;37;-20;-1;"SES Solaire Energies Syst&egrave;mes";3281;45.40;5.36;38260
2520;24;25;;80;;AMBIO SOLAR;0;45.56;5.03;38780
0;22;30;;-35;;"Non renseign&eacute;";0;45.72;4.73;69630
2000;15;15;;-45;-1;Tenesol;2149;45.66;4.81;69540
2240;19;35;;15;;Solaris-enr;0;45.41;5.34;38690
2625;21;20;36;-30;2;ENERCOS technologies;2892;46.19;5.19;1000
2700;20;25;37;40;1;Soleil Energies;3073;45.94;4.80;1600
0;26;30;;Sud;;AUTO INSTALLATION;0;45.59;5.25;38300
2000;16;20;38;-40;-12;Cermelec;2169;45.27;5.86;38920
1950;16;35;;30;;ECO LOGIQUE;0;45.92;5.36;1150
2520;16;25;37;Sud;-2;"SES Solaire Energies Syst&egrave;mes";2970;45.36;5.49;38140
2000;15;20;35;-55;1;Evasol;2040;45.37;4.29;42700
2640;23;30;35;-5;3;"SES Solaire Energies Syst&egrave;mes";3094;45.71;5.27;38460
2150;20;40;;20;5;"SES Solaire Energies Syst&egrave;mes";2532;45.28;5.54;38210
1430;13;30;35;Sud;-2;XPN DEVELOPPEMENT;1599;45.18;5.86;38420
2100;13;35;;Sud;;"SES Solaire Energies Syst&egrave;mes";0;45.58;5.27;38300
2880;24;20;35;40;0;R. LEPARGNEUR;3029;45.43;4.34;42230
2450;19;25;;30;;ENERCOS technologies;0;45.94;5.20;1800
3240;26;25;;-10;;Cermelec;0;45.39;5.38;38690
2160;18;30;;45;;SWEETAIR ENERGIE;0;45.29;5.89;38920
3060;24;25;37;-80;0;Vent Solaire;3111;45.67;4.81;69540
2100;15;25;37;Sud;1;"SUNASOL/ Duvert Electricit&amp;eacute;";2486;45.76;4.93;69120
2000;30;15;;-30;;SWEETAIR ENERGIE;0;45.23;5.80;38330
8925;58;25;35;-70;-4;Autoconstruction;9097;45.66;5.67;1300
3000;25;20;35;Sud;2;R. Lepargneur;3241;45.42;4.32;42230
2450;18;25;;-20;;ENERCOS technologies;0;45.75;5.70;1300
2640;24;20;;-20;-1;Superplombier;3006;45.32;4.89;38150
2880;22;25;;25;;ENERCOS technologies;0;45.84;4.69;69380
2520;16;30;;5;;"SES Solaire Energies Syst&egrave;mes";0;45.73;5.38;38510
0;22;25;;40;;EDF ENR;0;46.12;5.53;1430
1980;19;30;;-25;-2;BARUCH ET FISCH;2168;44.90;5.79;38350
1980;16;25;;-25;;SolarCom / VentSolaire;0;45.83;4.97;1700
2800;24;20;;Sud;;MDA ENERGIE NOUVELLE;0;45.87;4.48;69170
1800;15;30;;30;;CERVIN;0;46.21;5.94;1630
2880;21;30;37;45;-3;INCONNU;3098;45.21;5.80;38240
2400;20;20;37;20;2;www.SOLHAIC.com;2780;45.99;5.16;1320
3000;24;45;;Sud;;"SES Solaire Energies Syst&egrave;mes";0;45.30;5.09;38270
1650;13;20;;Sud;-1;Electro Energie Diffusion;1849;45.80;4.80;69370
2520;15;20;;-60;-4;FL Energie;2540;45.47;4.06;42560
2880;24;20;35;-75;-2;LEPARGNEUR;2825;45.43;4.33;42230
1980;17;25;37;-35;-13;VENITUCCI;2332;45.20;5.72;38700
2400;18;30;;40;0;remi.lepargneur;2481;45.48;4.41;42350
2520;15;20;;-55;;FL Energie;0;45.48;4.07;42560
2720;21;30;37;-20;-3;Vent solaire applications;3200;45.80;4.89;69140
2000;15;15;;Sud;-1;BIOVOLT;2180;45.73;4.69;69290
10416;180;10;;Sud;;industrie;0;45.98;4.73;69400
1920;16;35;34;80;3;ISP M.Fracheboud;1832;45.37;4.48;42660
3360;26;25;36;35;-2;Xylon Meylan;3636;45.35;5.60;38500
3000;25;20;35;-90;-2;LEPARGNEUR;2826;45.43;4.33;42230
2940;17;20;36;45;2;"SES Solaire Energies Syst&amp;egrave;mes";3321;45.53;5.11;38790
2704;17;40;;Sud;;SPER;0;45.64;4.26;42210
2940;18;45;38;35;-22;Charpentiers de Chartreuse;2975;45.34;5.90;38660
2880;20;30;;50;;WATT et HOME;0;45.36;5.59;38500
13545;70;30;;-15;;particulier;0;45.69;4.87;69200
12900;77;30;36;-10;-1;hd;14456;46.06;4.25;42460
2940;23;20;37;Sud;0;ENERCOS technologies;3547;45.32;4.90;38150
2940;18;20;35;25;-19;Energie Sol Onde Air 04860 PIERREVERT;3016;45.26;5.44;38210
2940;18;30;37;-35;1;ERDS   Mr.GUIA;3406;45.73;4.98;69740
2100;15;20;37;-20;-3;nicolosi;2369;45.56;4.13;42610
2800;25;25;;-10;;MDA ENERGIE NOUVELLE;0;45.60;4.78;69520
3000;25;20;36;-45;1;EPB Jacky Gacon;3350;45.58;5.16;38090
2730;16;40;36;30;7;123 Solaire;3191;45.80;4.84;69300
3000;25;20;35;-75;-2;LEPARGNEUR;2943;45.43;4.33;42230
3500;30;25;;-5;;MDA ENERGIE NOUVELLE;0;45.95;4.64;69400
2940;19;20;37;-25;-1;ENERCOS technologies;3340;45.71;4.69;69126
2040;16;25;;20;;ARVIGELEC, France Photons;0;45.25;5.81;38330
2940;18;20;36;-90;-2;123 Solaire;0;45.93;4.70;69480
2940;20;25;35;-40;-3;"SES Solaire Energies Syst&egrave;mes";3125;45.25;5.46;38210
2940;18;20;37;10;1;S comme solaire;3435;45.75;5.06;69330
2450;18;30;37;Sud;1;Expert Solaire;2912;45.85;4.84;69250
2940;24;20;36;-40;-2;ARTIS EN SOLAIRE;3129;45.41;4.26;42240
1800;15;20;;20;;Solaris ENR;0;45.86;5.09;1360
2970;23;55;36;5;0;APE SUD;3423;45.60;4.84;69360
2800;21;20;;-20;;PHOTON TECHNOLOGIES;0;46.11;4.90;1990
2415;35;20;;90;;Travo d Avenir;0;45.79;4.45;69770
1100;8;35;37;Sud;0;auto construction;1321;45.76;4.85;69006
1410;11;40;36;Sud;1;Solaire Le Vent;1627;45.52;4.37;42570
2990;17;20;36;30;2;A l Eau Solaire;3409;45.65;5.18;38290
2940;22;20;;20;-1;A l Eau Solaire;3552;45.64;5.18;38290
2940;23;20;37;75;0;a2 energie;3027;45.98;4.77;1480
2960;20;30;;Sud;-1;"Soleil en T&ecirc;te";3375;45.79;5.04;69330
2970;24;20;37;-5;0;LEPARGNEUR;3412;45.61;4.78;69520
2760;18;20;;90;;SADEJA SOLAIRE;0;46.19;5.20;1000
2720;21;30;;Sud;-1;Ets Cherbland;3303;45.82;4.19;42510
3000;30;15;36;-25;-1;Au Soleil De France;3229;45.68;4.37;69610
2996;20;30;;-80;;en cours de reflexion;0;46.21;5.54;1580
3000;20;15;36;-5;2;SADEJA SOLAIRE;3293;46.39;5.11;1560
2996;25;20;37;Sud;-1;SOLANE;3458;45.74;4.71;69290
2940;20;20;37;-105;0;a2 energie;2755;46.04;4.76;1480
2940;22;30;36;-45;-5;Evasol;3222;45.82;4.01;42260
2880;21;20;36;45;-2;GMV Industrie (EDF );3084;45.53;4.22;42160
3000;26;20;;20;-1;kap energy;3333;45.88;5.14;1800
3000;16;25;37;-45;-1;Dimension Energie;3343;45.71;4.69;69126
3000;20;20;36;Sud;-2;HELIOS;0;45.54;4.27;42160
7848;39;20;36;-50;-1;FL Energie;8319;45.77;4.43;69770
3000;29;20;;-20;-2;Electricite Service - Ternay;3669;45.60;4.83;69360
2520;20;20;;80;;EPB Solaire;0;45.39;4.86;38150
3000;12;25;36;-50;-2;En liquidation ;3291;45.52;5.40;38690
5880;39;20;;55;-1;FL Energie;6055;45.54;4.56;42800
2996;18;25;36;10;1;http://www.aleausolaire.fr/;3523;45.74;5.18;38230
2992;23;30;36;Sud;-4;SPER;3448;45.78;4.29;42360
5760;40;35;36;10;-1;lumensol;6772;45.39;5.37;38690
0;17;30;;45;;Evasol;0;45.63;4.59;69440
2992;21;20;36;Sud;-2;ASOLTEC;3502;45.42;5.30;38260
2996;18;45;;-70;;"Volta&iuml;que Sud";0;44.96;5.97;38740
0;20;30;;Sud;;PCIM PV SOLUTIONS;0;45.90;4.83;1600
2996;18;20;36;Sud;-3;Artis'an solaire;3244;45.54;4.59;42800
2960;21;25;37;-30;-5;Goncelinoise de charpentes et toitures;3327;45.23;5.82;38330
2850;24;20;37;Sud;1;CAP ECO ENERGIE;3298;45.99;4.81;1480
2940;19;20;;-85;;a2 energie;0;46.11;4.72;69220
750;3;20;36;-20;1;Enphase;859;45.63;5.15;38290
8820;58;20;36;-20;-2;FL Energie;9489;45.54;4.59;42800
3000;24;30;;20;;Astreo Energies;0;45.76;5.22;38460
2997;2997;65;34;45;13;BPPS;2858;45.33;5.49;38140
2380;16;20;37;-60;-1;123 Solaire;2548;45.71;4.69;69126
2992;22;20;;55;0;ASOLTEC;3058;45.07;5.28;38680
3000;24;20;37;Sud;-1;Solutions Soleil Energie;3436;45.63;4.72;69440
3080;22;45;;20;;Cermelec;0;45.15;5.83;38410
2835;21;50;;-10;-7;KBE Solaire;3105;45.07;6.01;38520
2940;20;30;36;15;-1;"SES Solaire Energies Syst&egrave;mes";3365;45.53;5.64;38480
3000;25;35;37;-30;0;SOLAIRE ATTITUDE;3436;45.36;5.59;38500
2880;22;40;;30;;SWEETAIR ENERGIE;0;45.02;5.76;38220
2996;18;20;36;20;-4;FL Energie;3392;45.55;4.49;42320
2880;17;20;36;30;1;A l Eau Solaire;3263;45.74;5.21;38460
2940;20;25;36;-75;-12;a2 energie;3079;45.14;5.67;38180
2568;15;45;30;-5;11;7 ENERGIES;2426;45.34;6.00;38570
2775;21;30;;-5;0;SOLAR TOTAL;3145;45.67;5.25;38460
2880;26;20;36;10;-2;G2S;3121;45.26;5.47;38210
2880;21;30;36;30;-8;SWEETAIR ENERGIE;3050;45.40;5.66;38960
5880;45;20;35;90;0;PCIM PV SOLUTIONS;5331;45.48;4.59;42320
2940;20;20;;-5;-1;a2 energie;3212;46.02;4.78;1480
3200;20;35;;-45;;LEPARGNEUR;0;45.85;4.68;69380
2925;22;30;;-40;0;CPAE;3449;45.39;5.49;38140
2960;21;20;36;Sud;0;VIOSUN;3437;45.68;4.85;69320
2800;22;20;;Sud;-1;Evasol;3195;45.51;4.21;42160
2160;20;30;36;90;1;Ent.Silva;2131;45.50;5.00;38440
3000;16;20;37;-25;0;"Solar D&eacute;veloppement";3416;45.97;4.80;1600
3290;22;30;37;60;0;NOVASOL;3526;45.84;4.74;69380
2850;24;20;;Sud;;CAP ECO ENERGIE;0;45.98;5.36;1500
2960;21;35;;Sud;;"avenir electricit&eacute;";0;45.66;4.72;69530
2960;21;15;;45;-1;ETS CHERBLAND;3259;46.08;3.98;42640
2960;20;45;37;-90;-3;INTINOVA;2671;45.60;4.22;42210
2940;18;20;;Sud;0;FL Energie;3148;45.51;4.61;42800
3000;25;30;;15;;"Soleil en T&ecirc;te";0;45.86;5.05;1120
2960;24;20;;70;-1;LEPARGNEUR;3073;45.58;4.22;42210
2940;20;20;;Sud;-1;"SES Solaire Energies Syst&egrave;mes";3168;46.26;4.91;1290
1320;20;25;;-60;;test;0;45.72;4.21;42110
3000;28;30;;30;-2;AMITEL CLIM;3375;45.44;6.01;38530
73600;500;25;;Sud;-1;ETERA;89740;45.54;4.16;42450
2970;24;20;;Sud;-1;"Soleil en T&ecirc;te";3255;46.17;5.20;1960
2960;21;20;;90;;GEO3+;0;45.54;4.16;42450
2800;21;30;37;20;1;EDF ENR;3332;45.70;4.97;69800
2960;21;40;37;45;-10;SWEETAIR ENERGIE;3025;45.27;5.87;38920
2940;22;15;;-45;;Evasol;0;45.66;4.90;69960
2244;23;35;35;Sud;6;"Soleil en T&ecirc;te";2608;45.61;5.28;38300
2960;21;30;;Sud;-1;GENELEC MORIN;3566;46.36;5.29;1270
3000;24;20;;Sud;-5;"Solha&iuml;c";3660;45.64;4.81;69390
2996;19;20;;Sud;-1;sibert group;3364;45.83;4.98;1700
2820;20;20;37;-15;0;123 Solaire;3235;45.69;4.79;69230
2250;16;20;;-20;;FL Energie;0;45.39;4.25;42490
3000;22;15;36;Sud;1;ALVENA;3363;45.63;5.55;38630
2960;22;35;37;70;-1;SUNNCO;3051;45.53;4.67;69420
1950;18;45;;Sud;;Energia;0;45.46;5.44;38690
2960;21;20;;Sud;-1;Energia;3627;45.91;4.84;1600
3000;20;25;34;70;5;sol air confort;2917;45.46;4.35;42390
2960;20;20;36;-30;2;Eco Alternatives;3260;46.25;5.21;1440
3000;29;30;32;35;-9;http://www.photon-wide-power.com;2802;45.37;6.05;38830
2880;21;20;32;Sud;1;SOLAIRO;3211;45.58;5.26;38300
2960;20;20;36;-10;2;Eco Alternatives;3321;46.25;5.21;1440
2996;18;25;37;25;-1;THERMO CONCEPT FOREZIEN;3312;46.08;4.05;42300
2960;21;25;;-60;-2;SWEETAIR ENERGIE;3311;45.26;5.86;38190
1620;15;20;;20;;ENERCOS technologies;0;45.49;4.94;38780
35520;250;5;;30;-1;Sunvoltaique;37460;45.63;5.56;38630
2960;22;20;36;5;0;Alt energies;3238;46.00;4.28;42630
2880;21;25;36;-15;0;jepac01;3336;45.69;5.43;38510
2996;18;20;37;-5;-1;R.Lepargneur;3457;45.78;4.70;69280
0;24;30;;60;;AFEE;0;45.47;4.52;42400
2862;15;45;36;5;1;a2 energie;3408;45.59;5.18;38080
2940;23;20;36;-60;-2;PhotoCapt;3083;45.58;4.63;69440
2400;13;20;37;90;1;123 Solaire;2413;45.76;4.96;69150
3000;22;20;37;Sud;0;ocealliance;3469;45.58;4.79;38670
2960;21;20;;-45;-4;EDF ENR;3038;45.51;4.53;42320
0;24;15;;-45;;Systema France;0;45.40;5.98;38530
2960;21;20;;-20;3;EDF ENR;3147;45.77;4.62;69210
33300;235;25;;30;-1;Sunvoltaique;37850;45.63;5.55;38630
3080;25;30;;45;;LEPARGNEUR;0;45.87;4.82;69250
3000;19;25;35;40;-2;"SES Solaire Energies Syst&egrave;mes";3409;45.54;5.18;38440
3000;25;20;;45;;a2 energie;0;45.54;5.44;38110
2996;18;20;36;85;1;solution soleil energie;2805;46.18;5.55;1460
7000;48;30;;-15;-1;Gallien;8089;45.65;4.98;69780
2880;24;20;;Sud;-1;DEXPORT;3297;45.45;4.81;38121
2996;18;30;38;Sud;-10;PHOTON ENERGIE;3398;45.28;5.88;38920
5000;35;40;;-10;;SWEETAIR ENERGIE;0;45.39;5.94;38660
2960;20;20;;10;7;LEPARGNEUR;3415;45.23;5.68;38120
2940;21;25;;-15;-1;123 Solaire;3273;45.73;4.90;69500
3000;26;25;;Sud;4;BSM Environnement;3593;45.30;5.64;38340
2590;18;20;;-5;;QUALI INSTALL;0;46.12;5.17;1960
1900;15;35;;-45;;Tenesol;0;45.65;4.79;69390
1380;22;35;;Sud;;SOLANE;0;45.73;4.89;69500
2880;21;25;37;-5;1;BAGLIONI;3405;45.82;4.76;69760
2960;20;30;36;Sud;0;inconnu;3448;45.54;5.53;38490
2880;23;10;36;-20;-1;H.G.;3010;46.00;4.12;42120
2500;17;20;;Sud;-1;AIR SOLAIRE;3076;45.47;4.79;69420
0;20;15;;45;;inconnue;0;45.76;4.66;69290
2996;18;20;35;Sud;-4;LEPARGNEUR;3333;45.74;4.52;69690
2880;13;20;37;-5;0;courant naturel;3315;45.68;4.79;69230
3000;25;20;37;Sud;1;LEPARGNEUR;3495;45.85;5.04;1120
2940;20;25;36;Sud;1;AGPG;3420;45.59;5.43;38110
3000;24;25;37;20;-1;SOLAIRE ATTITUDE;3429;45.32;5.55;38430
2880;21;20;36;-70;-1;SEROL;2888;46.01;4.11;42120
2996;18;20;36;Sud;-3;SUBSUN;3371;45.49;4.07;42560
3000;17;20;36;-65;-2;THERMO CONCEPT FOREZIEN;3206;45.63;5.05;38540
2220;16;25;36;Sud;1;Energia;2602;45.73;5.31;38460
2850;22;20;34;15;3;sol air confort;3076;45.37;4.29;42700
2880;25;20;37;Sud;0;eco pano;3455;45.40;4.86;38150
2960;22;20;37;15;-2;LEPARGNEUR;3336;45.84;4.60;69210
3000;21;30;36;Sud;1;Tenesol;3608;45.60;5.00;38540
2862;15;25;37;25;0;APE SUD;3275;45.62;4.74;69700
2996;23;20;;-75;0;fauche centre est;3088;45.59;4.29;42330
2996;23;20;;-35;;ENERCOS technologies;0;45.71;4.74;69630
2720;20;20;36;-40;2;CALEA Energies Renouvelables;2998;45.83;5.40;38390
33600;240;30;36;10;-4;sarl P .CHATTE;37779;45.06;5.27;38680
3000;25;35;36;15;1;Imerys;3446;46.17;5.31;1250
3000;25;30;;60;;Achard Charpente;0;45.63;4.79;69390
2960;13;30;;Sud;-7;TERRE D AVENIR;3351;45.61;5.53;38630
2960;18;20;;20;-1;LEPARGNEUR;3197;45.58;4.63;69440
2880;20;35;36;40;-2;VERDEN;3192;45.58;4.43;42140
2970;23;25;;10;-1;ENERCOS technologies;3299;45.65;4.25;42210
3040;21;35;;-45;;Solstice concept;0;45.55;4.18;42450
2940;20;20;;40;-1;CALEA Energies Renouvelables;3357;45.38;5.07;38270
2940;20;25;;Sud;;CALEA Energies Renouvelables;0;45.22;5.79;38240
2520;21;20;;90;;123 Solaire;0;45.55;5.00;38780
3000;24;25;;-10;-5;Alpes Bois developpement;3553;45.18;5.69;38600
2990;21;30;;-5;-2;"Soleil en T&ecirc;te";3424;45.67;5.42;38510
8930;40;20;36;-135;1;Groupe CER;7710;45.45;5.37;38690
2996;23;20;36;5;1;ENERCOS technologies;3523;45.55;5.07;38790
2775;15;35;34;15;-2;Power Me;2958;45.22;5.89;38190
2960;22;45;;85;;Evasol;0;45.49;4.23;42170
3000;22;30;;-15;0;AR VIGELEC;3832;45.21;5.75;38700
2880;25;25;;-45;;LES TECHNICIENS DU SOLAIRE;0;45.37;4.50;42660
2968;20;40;37;Sud;-6;"SES Solaire Energies Syst&egrave;mes";3614;45.18;5.69;38170
2000;15;45;;90;;Eco Alternatives;0;45.33;5.27;38870
2880;22;20;36;Sud;1;ALVENA;3378;45.61;4.92;69970
3000;20;20;37;Sud;0;Home Concept;3499;45.67;4.94;69780
3000;20;20;;-70;;ECOMOTIV;0;45.49;4.81;69420
2960;21;45;;Sud;;CERDF Beaumont;0;45.22;5.78;38240
2880;21;20;37;15;1;IPC;3343;45.74;5.14;38230
1875;15;20;33;-15;-16;EPB Solaire;2052;45.57;5.27;38300
3000;21;40;;-45;;Charpentes Contemporaines;0;45.26;5.86;38190
3000;21;20;;-30;-1;123 Solaire;3630;45.56;5.02;38780
2100;15;25;;-45;;VERDEN;0;45.61;5.27;38300
3000;22;25;36;45;-1;SRCT Systemes Solaires;3222;45.99;4.17;42630
2960;20;20;;80;;eco pano;0;45.80;4.62;69210
3000;24;55;;-30;;HCE;0;45.39;4.37;42150
2940;23;30;35;-20;13;CALEA Energies Renouvelables;3227;44.90;5.94;38740
3010;21;30;36;45;1;"Soleil en T&ecirc;te";3385;45.72;5.21;38460
1100;15;15;;60;0;SOL R ELEC;1242;45.22;5.79;38330
2992;23;40;37;120;0;S comme solaire;2360;45.42;4.82;38550
3000;16;30;35;Sud;2;"SES Solaire Energies Syst&egrave;mes";3493;45.54;5.41;38110
2800;21;30;36;Sud;0;erdf-enr;3346;45.66;4.93;69780
2100;24;50;;Sud;-6;SUNNCO;2301;46.04;5.31;1160
3000;23;30;;-90;;ALPSOLEIL;0;45.79;5.69;1300
2880;21;25;;-60;;Actusolis;0;45.62;4.67;69440
2940;23;30;37;-65;-1;Solaire Direct;3080;45.84;4.64;69210
2835;23;25;37;20;-10;KBE Solaire;3333;45.16;5.68;38170
1320;12;35;37;Sud;1;Maintenance Habitat;1594;45.70;4.93;69800
2640;18;20;37;-45;0;Fe Solar;2914;45.67;4.78;69230
2996;22;20;;Sud;-1;GENELEC MORIN;3634;45.58;5.26;38300
2560;21;30;36;30;-13;Goncelinoise de toiture;2923;45.20;5.67;38360
2800;23;40;;-35;-21;Energia;3269;45.25;5.59;38360
2590;23;20;36;50;-1;Biosystem;2719;46.00;4.12;42120
3010;14;20;37;-35;0;via solar;3361;45.97;4.79;1600
2800;21;40;36;45;14;Eco Alternatives;3057;46.11;5.32;1160
3680;24;30;36;110;-4;Solaire Direct;2973;45.29;5.49;38210
2970;20;30;37;-60;-1;e..;3184;45.80;4.71;69890
2960;20;20;37;40;-2;"watt&amp;amp;home";3288;45.35;5.53;38140
1900;15;20;;45;-5;Evasol;1982;45.32;4.61;42220
2800;20;25;37;Sud;-2;lumensol;3316;45.22;5.79;38240
3000;22;25;37;50;-2;ENERCOS technologies;3279;45.21;5.77;38240
2800;30;25;;60;;ASOLTEC;0;45.34;5.57;38500
3000;16;35;37;Sud;-2;a2 energie;3477;46.11;4.69;69220
4770;30;35;36;-80;3;ARTEIS SOLAIRE;4632;45.70;5.21;38460
2996;25;20;;Sud;;a2 energie;0;45.82;4.71;69890
2100;20;15;36;Sud;1;UNION ENERGIE;2432;45.49;5.09;38440
2960;21;20;;-90;;EDF ENR;0;45.87;5.22;1800
2880;30;35;;5;;ENERCOS technologies;0;45.53;4.61;42800
2940;20;30;35;-45;-7;"H&amp;eacute;lios &amp;eacute;nergies vienne";3252;45.33;5.47;38140
3280;16;25;;-90;;france energies renouvelables;0;45.89;5.29;1150
3000;16;25;36;-25;1;123 Solaire;3395;46.24;5.03;1660
2996;29;20;35;-5;-2;"B&amp;amp;G MONTEILLER";3249;45.52;4.50;42320
2996;18;25;;-40;2;A l Eau Solaire;3260;45.74;5.24;38460
2940;20;20;36;25;1;TRYBA SOLAR;3428;45.53;5.03;38780
2992;20;20;37;15;1;"Soleil en T&ecirc;te";3456;45.90;4.84;69730
2960;24;25;36;-10;-2;solstice concept;3357;45.54;4.18;42450
2960;20;30;37;-45;-2;WATT HOME;3362;45.39;5.47;38140
2960;20;30;;-15;-1;AWE Climatisation;3336;45.84;4.72;69380
2960;20;25;38;-40;-13;SWEETAIR ENERGIE;3255;45.30;5.90;38660
2940;22;40;;-15;;Eo;0;45.71;4.68;69126
2975;25;30;;Sud;-1;cervin inovation;3336;46.07;4.89;1990
36630;250;20;;-20;-6;moi;42660;45.74;3.99;42130
2940;23;20;37;85;1;VMA ENVIRONNEMENT;2971;45.93;4.81;1600
2880;24;20;37;45;-9;SOL R ELEC;2987;45.27;5.86;38190
2618;23;50;36;-5;6;NOVASOL;3015;45.29;5.63;38340
3000;16;20;;15;;ENERCOS technologies;0;45.53;4.57;42800
2940;16;20;;75;;ENERCOS technologies;0;45.71;4.81;69600
2640;24;30;;Sud;-1;Gelhak Energy;3031;45.75;4.92;69120
2960;18;25;36;65;1;Vision Energie;3135;45.58;5.31;38300
2625;20;20;37;-5;1;COMEL;3033;45.91;4.82;1600
2992;22;45;;20;;S comme solaire;0;45.63;5.56;38630
2700;21;15;37;-90;-2;Goncelinoise;2698;45.35;5.52;38140
2925;20;45;37;Sud;-3;CHERBLAND;3377;45.81;3.99;42260
3000;22;35;;-5;;Pienenergie;0;45.53;5.58;38490
2996;24;25;35;55;7;"SES Solaire Energies Syst&egrave;mes";3274;45.53;5.31;38300
3010;21;35;;5;;FL Energie;0;45.48;4.23;42170
2940;17;20;37;-30;1;123 Solaire;3363;45.79;4.99;69330
2996;18;20;37;-5;-1;123 Solaire (cessation 03/2012);3487;45.82;4.79;69370
3000;20;25;36;Sud;3;SADEJA SOLAIRE;3392;46.21;5.32;1250
600;20;20;;-5;;abs energy;0;45.90;4.81;1600
3250;22;20;35;45;9;APE SUD;3608;45.64;4.83;69360
8840;58;15;35;45;-8;ASOLTEC;9351;45.60;4.50;69590
2880;21;35;36;20;-3;SWEETAIR ENERGIE;3255;45.45;5.65;38620
2800;21;20;36;0;-3;********************************;3145;45.40;4.09;42380
2820;20;20;37;-20;-1;Entretien Du Forez;3206;45.74;4.12;42110
80500;600;20;;-5;;TCE SOLAR;0;44.81;5.94;38970
2990;21;20;37;-25;-1;Soleris;3426;45.21;5.79;38240
2880;43;20;36;Sud;-7;SOLAIRE ATTITUDE;3289;45.17;5.33;38160
3000;25;25;36;-5;-9;a2 energie;3354;45.39;5.60;38500
3120;22;25;36;-110;-6;LOGISUN;2819;45.68;4.82;69540
2940;23;15;37;-25;-4;Bio Sol Air Energie;3329;45.25;5.83;38330
2940;17;35;;-5;0;"SES Solaire Energies Syst&egrave;mes";3456;45.36;5.51;38140
2890;22;25;36;70;1;CERVIN;2999;46.05;5.34;1160
3000;20;20;;-110;;ABS;0;45.69;4.67;69510
2996;18;20;37;-10;0;PV Solutions PCIM;3604;45.31;4.87;38150
2960;20;25;36;70;-2;"Watt&amp;amp;Home";2975;45.12;5.77;38320
2982;22;45;35;-20;-11;PANOSUN;3334;45.67;5.67;1300
2880;20;20;37;-65;-1;BAGLIONI;3048;45.67;4.70;69510
4000;27;20;;20;;ENERCOS technologies;0;45.51;5.37;38110
2700;14;35;34;Sud;-6;Home Concept / KOREAM;3106;45.65;5.40;38510
1850;13;20;37;-45;1;AIR SOLAIRE;2058;45.71;5.12;69124
2940;17;15;37;Sud;0;"Solar D&eacute;veloppement";3306;46.02;4.79;1480
2700;23;20;36;70;0;Moi;2842;45.69;5.13;38290
2960;20;35;37;90;-5;WATT et HOME;2730;45.18;5.69;38170
2960;20;35;;40;;POINT SOLAIRE;0;45.55;4.11;42610
4200;36;30;36;Sud;0;Tenesol;4884;45.96;4.66;69400
2880;21;15;;Sud;-1;GEO3+;3222;45.52;4.18;42450
9000;72;35;37;-70;-3;SARL RENOV IMMO;9204;45.30;5.49;38210
9000;72;25;37;-45;-3;SARL RENOV IMMO;9923;45.30;5.49;38210
2940;23;20;;Sud;-1;ATESOL;3615;45.69;5.02;69720
9000;50;35;37;20;-17;CIMES ENERGIES;10370;45.31;5.88;38660
2500;25;45;36;-15;2;MEAUBELEC;2918;45.78;5.17;38280
2960;21;40;;-45;;GREEN ENERGIE;0;45.63;3.98;42940
2960;24;30;37;Sud;-8;SWEETAIR ENERGIE;3548;45.45;5.99;38530
2996;20;15;;Sud;;THERMO CONCEPT FOREZIEN;0;45.55;4.32;42330
2940;18;20;;Sud;0;THERMO CONCEPT FOREZIEN;3457;45.56;4.37;42330
43200;288;15;36;90;1;FL Energie;42789;45.48;4.63;42800
2800;21;30;37;Sud;0;EDF ENR;3344;45.76;4.86;69100
2820;22;25;;-10;;123 SOLEIL;0;45.75;4.77;69160
2400;18;20;37;5;0;Lariviere;2786;45.77;4.87;69100
2400;13;35;37;35;-5;ENERCOS technologies;2763;45.20;5.74;38700
2940;17;25;;-20;;ecolo n Ergie;0;45.20;5.80;38240
2500;15;15;33;-90;9;AIR SOLAIRE;2265;45.37;4.39;42660
2960;20;10;35;-5;6;WATT et HOME;3121;45.16;5.76;38400
3000;22;25;36;5;0;ALVENA;3314;45.97;4.34;69550
2996;17;25;;-25;1;FG plus (74);3346;45.25;5.66;38120
2925;20;20;37;-20;-2;CHERBLAND;3279;45.82;4.00;42260
1850;11;10;33;35;2;WATT et HOME;1922;45.08;5.77;38220
15275;110;40;;45;;nov;0;45.39;4.30;42500
14000;105;25;35;-45;-1;Evasol;14961;45.48;4.31;42480
3000;20;20;37;-10;0;AWE;3490;45.81;4.86;69580
3000;24;40;32;30;0;Bio Solaire;3051;45.05;5.98;38520
2940;21;30;;Sud;;Solaire Le Vent;0;45.58;4.04;42600
2100;15;20;36;-30;-6;"avenir electricit&eacute;";2349;45.63;4.63;69440
2880;20;25;;45;1;subsol;2933;45.44;4.38;42000
3000;26;20;35;-10;-2;AMBF;3153;45.42;4.38;42100
2800;22;15;;-45;;Biosystem;0;45.83;4.26;42510
3424;24;35;31;-45;8;R CONFORT;3457;45.07;5.73;38560
8930;48;45;33;30;-11;Chaude Ambiance;8577;45.25;5.93;38190
2960;17;20;36;-70;-4;SWEETAIR ENERGIE;3083;45.14;5.73;38130
2996;24;25;;Sud;-1;ENERCOS technologies;3487;45.51;5.00;38440
2960;20;20;36;-20;-15;WATTHOME;3410;45.11;5.67;38640
2720;21;20;37;-20;-1;AIR FLUIDES;3113;45.78;4.74;69260
2880;27;20;36;-145;0;GSOLR;2421;45.63;4.86;69360
2992;22;20;36;-45;2;ASOLTEC;3293;45.82;5.38;38390
3000;30;20;36;-80;-7;ENERCOS technologies;3136;45.37;4.68;42520
2940;20;30;;-15;;SWEETAIR ENERGIE;0;45.24;5.39;38470
2960;21;20;;90;;A l Eau Solaire;0;45.37;5.62;38960
2960;22;30;37;-50;-2;Alt energies;3227;45.55;4.21;42160
2640;18;30;35;Sud;-15;R CONFORT;2933;45.52;4.43;42290
5200;35;20;36;90;-1;CHOUZY PAGNON;4950;45.63;4.30;42210
3120;22;25;36;-45;2;INTI PRO CONCEPT;3458;45.87;5.21;1800
2592;19;30;;Sud;2;A l Eau Solaire;2871;45.38;5.64;38960
2960;20;20;;-45;;desainjean;0;45.50;5.30;38300
3000;22;20;;80;0;ENERCOS technologies;3108;45.39;4.31;42500
2280;20;20;;-45;-1;AIR SOLAIRE;2599;45.38;5.25;38260
2940;21;25;37;-15;-1;NVL Energie;3355;45.64;4.28;42210
3010;21;25;36;-45;2;SOLARIS ENR;3296;46.12;5.17;1960
3000;25;20;36;-10;2;lepargneur sarl;3450;45.78;5.17;38280
2940;23;25;;-20;-1;AQTB;3185;45.37;6.00;38570
2880;22;20;36;45;-2;Grange et fils;3087;45.56;4.29;42340
3000;17;20;37;15;-1;LEPARGNEUR;3457;45.71;4.81;69600
2996;24;30;;Sud;;Evasol;0;45.37;4.95;38270
21000;142;25;36;60;2;Sarl GALLET;22392;46.23;5.09;1660
3000;22;20;36;-30;0;SADEJA SOLAIRE;3408;45.85;5.05;1120
3525;21;35;;70;;KBE Solaire;0;44.94;5.65;38650
2960;21;20;;-180;;BELANTIN (EDF ENR);0;45.39;5.44;38690
2000;16;30;36;90;-2;Evasol;1863;45.57;4.26;42340
3000;21;45;36;Sud;-11;Prothermie Confort;3474;45.44;5.58;38620
2940;17;20;;Sud;-4;FL Energie;3454;45.53;4.60;42800
2982;21;15;36;55;-3;ALVENA;3206;45.55;4.81;69700
2960;25;35;;Sud;;INTI PRO CONCEPT;0;45.81;5.21;1800
2982;22;25;37;-5;1;MJ Energies;3541;45.68;5.03;69720
2500;18;20;35;-30;2;SOL R ELEC;2599;45.13;5.82;38410
0;20;30;;Sud;;ECOMOTIV;0;45.75;5.21;38460
2880;19;20;;80;;A l Eau Solaire;0;45.44;4.99;38122
2820;20;20;;45;-1;SOL ENERGY;3043;45.83;5.21;1800
2996;24;30;36;-20;1;VMA ENVIRONNEMENT;3568;45.32;5.13;38260
2880;21;20;37;20;0;EDF ENR;3362;45.51;4.78;69420
0;28;40;;-5;;Energia;0;46.07;4.76;1090
3000;20;30;;-15;-1;ECOMOTIV;3499;45.33;4.89;38150
2960;23;20;36;Sud;1;Enerys;3486;45.59;4.99;38540
2592;24;30;;-180;;A l Eau Solaire;0;45.38;5.64;38960
3000;27;20;;25;-10;"air&amp;sect;chaleur d' aujourd'hui";3160;45.36;4.35;42660
2996;18;30;36;-75;0;EAST ENERGIES;3006;46.22;4.84;1290
640;4;35;;-100;;mikael;0;45.55;4.72;69700
2040;15;20;36;-105;-15;SOLAIRE ATTITUDE;1973;45.10;5.66;38640
2970;24;25;36;-45;1;"Soleil en T&amp;ecirc;te ";3327;45.53;5.21;38300
2960;19;40;33;30;11;ALDER;3017;45.35;5.67;38134
3000;27;30;;-25;;Bio Solaire;0;45.04;5.97;38520
0;22;30;;105;;sol air confort;0;45.40;4.26;42240
1152;24;70;;Sud;;SOLAIRE ELEC;0;45.19;5.87;38420
9000;58;35;37;Sud;0;SADEJA SOLAIRE;10660;46.09;4.78;1090
2880;24;25;37;-20;0;ALVENA;3515;45.35;4.90;38150
2800;21;25;;25;;EDF ENR;0;45.93;4.79;1600
2840;20;20;36;-20;8;Pi energies;3208;45.22;5.68;38120
2450;16;20;37;-45;0;systemesolaire  20 ruele corbusier 63800 cournon d;2673;45.91;4.77;69650
2900;22;35;36;Sud;1;ALVENA;3475;45.67;4.86;69320
2800;21;15;;-15;;CERDF Beaumont;0;45.21;5.68;38120
2940;23;15;37;40;0;ENERGEOS;3266;45.84;4.85;69270
2960;20;20;37;Sud;-2;A2Energies;3518;45.44;4.75;42410
2820;17;20;37;-45;1;Eco tech;3150;45.76;4.96;69150
3000;21;25;;90;;eco systeme;0;46.02;5.30;1160
2880;20;30;37;-70;-3;CONFORTO SOLAR;2986;45.36;5.58;38500
1356;110;30;;-45;0;ECO RESO;1497;45.74;5.67;1300
4440;18;25;;-20;-1;a2 energie;5446;45.89;5.09;1120
2960;20;15;37;-45;0;ISICOM Services;3187;46.12;4.76;69220
2960;21;15;;Sud;;cherbland conbustible;0;45.64;5.49;38510
2960;20;30;36;10;2;CER bandit;3497;45.79;5.16;38280
2960;22;20;35;90;-4;LOGISUN;2799;45.97;4.67;69400
2940;20;25;;-90;;"SES Solaire Energies Syst&egrave;mes";0;45.37;5.16;38260
2880;20;30;;-45;;GENELEC MORIN;0;45.47;4.43;42350
2960;21;20;36;-80;-2;SARL AIR FLUIDES;2894;45.40;4.26;42240
29250;218;10;;45;-5;"Solar D&eacute;veloppement";30308;45.87;4.82;69250
2990;18;20;;10;0;A l Eau Solaire;3615;45.64;5.19;38290
3000;25;35;;90;;teckniksun;0;45.53;5.40;38110
3360;20;20;37;-90;-1;AVENIR ELEC;3318;45.67;4.70;69510
2925;21;15;;-15;-1;CherblandHabitat;3411;45.49;4.16;42680
2960;26;20;37;45;0;"Soleil en T&ecirc;te";3383;45.46;4.81;38121
2760;20;30;36;-10;3;PCIM PV SOLUTIONS;3272;45.60;5.14;38090
2940;22;25;;45;1;NVL Energie;3039;46.00;4.11;42120
3440;20;15;36;Sud;2;ARTIS EN SOLAIRE;3756;45.74;4.28;42110
2940;23;25;;-100;;AQTB;0;45.19;5.75;38400
2992;22;20;35;30;-8;Solaire Le Vent;3100;45.46;4.36;42390
2940;100;30;;Sud;-1;SunPower;3394;45.66;4.94;69780
4200;20;30;34;-45;-8;Perso;4185;45.26;5.91;38190
2940;15;35;;Sud;;Groupe Dimention;0;45.48;4.71;42410
2880;25;30;37;45;-2;"Soleil en T&ecirc;te";3194;46.36;6.13;1220
2996;25;25;35;-20;8;CPAE;3373;45.40;5.42;38690
2996;25;35;;Sud;;NOVASOL;0;45.22;5.80;38330
2960;22;40;34;-20;0;sol air confort;3174;45.39;4.33;42500
3000;25;20;36;-5;-2;ROGER MAZARD;3352;45.72;4.43;69610
2880;23;30;;Sud;2;Solar;3213;45.98;4.33;69550
3000;23;25;;30;1;alpesoleil;3386;45.68;5.64;1300
12000;80;20;37;135;-1;ARTEIS SOLAIRE;10291;45.43;5.42;38690
3600;20;30;37;-90;1;BEEE;3478;45.79;5.05;69330
2940;16;25;34;-40;2;ASOLTEC;3178;45.13;5.71;38130
5880;35;25;37;45;0;Tenesol;6612;45.95;4.82;1600
5000;32;20;36;45;8;ISOWATT;5508;45.94;5.37;1500
6000;41;25;36;Sud;-2;LEPARGNEUR;6795;45.69;4.37;69610
2940;2347;20;;-50;-1;SARL SOL ENERGY;3172;45.75;5.11;38280
3040;24;25;36;-45;1;Photon Energie (38 St Savin);3366;45.63;5.58;38630
2700;20;30;36;-10;-9;Megawat Energies;3176;45.40;5.52;38140
2925;21;35;36;Sud;-2;Cherbland Habitat;3366;45.52;4.26;42160
7020;48;30;;Sud;-2;positivenergies;8219;46.28;6.03;1170
5390;37;30;37;-20;1;Moi meme, le client;6391;45.73;5.00;69740
2180;16;20;;-30;-1;A l Eau Solaire;2425;45.74;5.18;38230
2700;20;15;37;-45;0;Megawat Energies;2895;45.24;5.81;38330
3150;20;25;;-10;-12;SRCT Systemes Solaires;3611;45.44;4.75;42410
2940;20;40;;-10;;PCIM PV SOLUTIONS;0;45.76;4.76;69160
2800;21;35;37;-10;0;Zingueur;3367;45.83;4.87;69580
3000;27;20;;-50;-1;"ACA (&amp;amp;amp;agrave; Bo&amp;amp;amp";3333;45.47;4.50;42400
2500;18;40;36;5;-1;PRO FIL ELEC;2851;45.80;4.40;69770
2856;15;20;;45;-1;123 Solaire;3425;45.51;4.83;69560
5000;33;25;36;45;-1;lumensol;5560;45.35;5.30;38590
2760;20;30;;-30;0;Megawat Energies;3125;45.40;5.70;38380
2700;20;20;37;80;-1;Megawat Energies;2703;45.35;5.59;38430
2700;21;40;34;20;15;Megawat Energies;3184;44.90;5.85;38350
8670;56;15;36;-90;-2;THERMO CONCEPT FOREZIEN;8454;45.54;4.16;42450
2700;20;40;;45;;Megawat Energies;0;45.33;5.90;38660
1840;13;20;36;-20;0;Moi;2107;45.69;5.13;38290
2880;24;20;36;-20;1;"Solha&iuml;c";3269;45.75;5.21;38460
3000;30;30;;-65;;Photowatt;0;45.57;5.42;38110
2970;30;20;;Sud;1;Imerys;3294;45.95;5.35;1500
2880;15;25;;Sud;-2;ENRGI :-(;3273;45.23;5.81;38330
2590;21;40;36;45;1;"ENERGIE&amp;amp;;SERVICE";3791;45.60;5.15;38090
3000;17;20;36;-40;-3;A l Eau Solaire;3340;45.80;5.35;38390
3000;20;20;;45;-1;BSM Environnement;3265;45.82;5.19;1800
2650;17;20;37;10;0;SOLARTEC;3012;46.10;4.77;1090
2960;25;20;39;-100;-8;LEPARGNEUR;2952;45.30;5.88;38660
2520;16;30;;-85;;Solar Clim System;0;45.50;4.56;42320
3000;19;20;;-35;-1;ISOWATT;3238;45.87;4.70;69380
2940;21;20;35;-50;-1;solelux toiture;3040;45.97;4.33;69550
6510;44;20;37;Sud;-1;Altesol;7393;45.83;4.64;69210
2960;20;45;36;45;1;ENERGISOL;3302;45.67;4.85;69320
2400;12;20;35;-45;-7;moi;2624;45.57;5.30;38300
2880;30;20;37;Sud;0;VMA ENVIRONNEMENT;3422;45.46;4.85;38138
3000;21;20;37;30;2;ASOLTEC;3448;45.99;5.04;1330
2960;21;15;36;-90;-2;Cochet Bourgogne;2944;45.66;4.74;69530
0;20;20;;-30;;EDF ENR;0;45.75;4.54;69690
3000;17;30;36;-30;0;Watt et Home;3289;45.15;5.83;38410
2996;23;20;37;-45;-5;B&L;3250;45.23;5.82;38330
2996;21;30;;90;;PCIM PV SOLUTIONS;0;45.89;4.92;1390
3000;20;35;;45;;GMV Industrie;0;45.47;4.51;42400
2880;21;35;35;Sud;-11;Actusolis;3245;45.79;4.51;69690
3000;19;20;37;Sud;0;ISOWATT;3503;45.83;4.88;69580
3000;21;20;;-35;0;HAB26;3071;45.42;4.38;42100
2940;15;20;37;Sud;1;SRCT Systemes Solaires;3434;45.83;4.99;1700
2800;24;20;37;45;-2;ERDS;3065;45.62;4.66;69440
2640;20;20;;90;;PRIMA CLIM;0;45.50;5.00;38440
1680;19;25;;-90;;TERRE D AVENIR;0;45.26;4.56;42220
3000;29;25;36;40;0;A l Eau Solaire;3365;45.52;5.40;38690
5000;34;20;37;-90;-2;ISOWATT;4877;45.83;4.60;69210
2820;20;20;;-20;-1;SOL ENERGY;3167;45.77;4.92;69120
1715;12;40;;30;;GECO SYSTEME;0;45.39;5.29;38260
2880;26;60;;Sud;4;Apex BP SOLAR;3094;45.25;5.71;38950
9000;58;35;;-45;;ISOWATT;0;46.06;5.37;1160
3000;22;20;37;55;-2;positivenergies;3224;45.81;4.72;69890
6120;105;35;37;45;-3;COGESUN;6593;46.24;5.98;1710
6867;33;25;37;Sud;-1;SOLARTECH;7865;46.15;4.72;69220
2880;21;30;;-20;-5;CHERBLAND;3112;45.86;3.89;42430
8960;46;15;;90;;FL Energie;0;45.45;4.70;42410
2960;19;50;36;15;2;SWEETAIR ENERGIE;3355;45.47;5.57;38620
4625;28;30;36;Sud;0;ARTEIS SOLAIRE;5468;45.39;5.33;38260
2040;16;20;;45;0;EDF ENR;2223;45.74;4.79;69110
4485;33;50;37;-30;-1;SWEETAIR ENERGIE;5167;45.44;5.32;38690
2970;16;30;37;45;0;"ARt&amp;amp;amp;eacute;&amp;amp;amp;iuml;s solaire";3356;45.82;4.95;1700
2990;23;20;35;Sud;-6;Solaire Le Vent;3328;45.56;4.43;42140
9000;60;30;36;-10;2;Solartec;10318;46.33;5.19;1340
0;20;30;;80;;COGESUN;0;44.93;5.86;38350
750;7;30;36;90;4;capvera;720;45.80;5.44;1470
2850;24;30;;15;-7;PCIM PV SOLUTIONS;2931;46.11;4.45;69870
2340;20;30;37;45;-2;Ecoenvirronement;2621;46.33;6.07;1170
2880;28;15;;-15;-6;Sol R;3369;45.18;5.69;38170
1980;16;15;;Sud;-17;EODIS;2087;45.63;4.60;69440
4410;45;20;35;Sud;-3;CHERBLAND;4731;46.17;4.22;42750
4000;26;20;36;50;1;PHOTON ENERGIE;4386;45.61;5.32;38300
6000;38;20;36;-180;-4;Rhone solaire Pro;4746;45.81;4.79;69370
2640;19;40;36;75;1;Sol Azur;2703;45.55;4.91;38200
2700;15;25;36;35;3;Moi;3024;45.48;5.58;38620
3675;25;15;36;Sud;-8;BS AUTOMATION;3988;45.74;3.92;42990
2960;20;60;;90;;ROBBY SOLAR;0;45.88;5.71;1510
5500;37;20;35;-45;-2;PCIM PV SOLUTIONS;5931;45.55;4.40;42140
3000;22;30;36;-45;-1;Vasiona;3201;45.36;5.60;38500
1560;20;40;;-15;;JSSA solar;0;45.55;4.85;38200
3330;18;15;;90;;bionergy;0;46.34;6.12;1220
3000;20;25;37;Sud;1;Windeo Green Futur;3551;45.75;4.92;69120
3060;21;20;37;Sud;1;Solaire-Pro 33 rue Villeroy 69003 LYON;3568;45.75;4.94;69150
6000;48;15;36;45;2;Rhone Technical Service;6575;45.71;5.29;38460
5880;48;30;36;Sud;2;Ultimate Solare;6883;45.84;5.22;1800
11500;64;70;36;Sud;0;SPI;11982;46.03;5.67;1260
3600;42;45;;-90;;Euro france solaire;0;45.41;5.47;38690
7750;51;15;;20;-1;FL Energie;8252;45.54;4.59;42800
3000;20;25;36;40;-1;tryba;3406;45.76;5.00;69330
9000;60;15;37;90;-2;PCI-m (38);8890;45.66;4.22;42210
5880;42;20;35;30;-5;Cherbland Habitat;6352;45.94;4.42;69170
1830;15;45;36;-45;-4;Evasol;1944;45.98;4.03;42300
5000;30;35;36;-10;-2;SOL R RENOV;6147;44.96;5.77;38119
3000;22;40;;30;;Charat;0;45.35;5.60;38500
2960;21;30;;Sud;-1;VIVALDI ENVIRONNEMENT;3334;46.00;4.65;69640
2880;20;30;;-45;0;PCIM PV SOLUTIONS;3050;45.51;4.25;42170
2000;15;20;37;Sud;-1;Evasol;2274;45.93;4.71;69480
1875;15;45;36;-10;0;SOL R ELEC;2154;45.13;5.79;38320
3060;26;50;;-10;-5;SOLAIRE ATTITUDE;3588;45.24;5.82;38330
107625;880;20;29;45;-8;EPB Solaire;108870;45.87;5.36;38390
5880;42;20;37;5;-1;CPAE;6761;45.39;5.42;38690
8960;54;35;37;-45;2;AIM SOLUTIONS ENERGIES;9969;45.92;5.22;1800
6000;32;20;37;-10;-1;MySun;6915;45.71;4.71;69630
3330;30;30;;Sud;-5;bionergy;3549;45.26;4.49;42220
5180;36;15;36;0;0;VIVALDI ENVIRONNEMENT;5766;46.18;4.88;1140
5100;33;20;37;Sud;-1;SISOLEOL;5746;46.16;4.72;69220
3300;17;35;36;20;0;Photon Energie;3850;45.55;5.48;38110
1900;15;20;;Sud;-1;Evasol;2148;45.70;4.85;69190
9000;60;20;;40;-5;FL Energie;8726;45.47;4.58;42740
2880;16;20;37;-90;2;SOLAR TOTAL;2862;45.80;5.08;69330
2970;5;30;36;-45;-3;EDF ENR;3353;45.75;5.00;69330
2568;12;15;;-90;;SOLERINE ENERGY;0;45.33;5.05;38270
0;20;15;;Sud;;AUTO INSTALLATION;0;45.75;5.68;1300
6000;30;20;36;-70;-4;ISOWATT;6194;45.93;4.71;69480
2880;20;40;36;Sud;-2;as tech;3186;45.43;5.75;38380
6120;39;25;;10;-1;Eco Energie Systemes;6728;45.98;4.65;69640
5880;40;35;37;-90;-2;ARKEOS;5370;46.04;3.98;42155
3000;18;25;33;140;-32;BEEE;2021;45.05;6.02;38520
2820;20;15;36;30;-1;POLLET SA;3068;45.36;4.50;42660
8575;60;30;36;Sud;-9;PCIM PV SOLUTIONS;10063;45.40;5.52;38140
2970;15;15;36;-25;-5;EDF ENR;3356;45.40;4.73;42410
0;25;30;;-5;;UNION ENERGIE;0;45.38;4.79;38550
2996;28;15;36;Sud;0;VMA ENVIRONNEMENT;3399;45.33;5.16;38260
2996;23;25;;-55;0;AQTB;3237;45.22;5.79;38240
0;36;20;;Sud;;BEEE;0;45.48;5.20;38440
2960;18;40;38;45;-8;xx;3182;45.21;5.75;38700
2970;24;30;37;50;-7;EUROCONFORT;3062;45.28;5.89;38920
1860;16;25;35;25;1;SWEETAIR ENERGIE;2018;45.15;5.85;38410
12690;90;30;36;Sud;-1;ASOLTEC;14862;45.31;5.25;38870
2943;12;20;35;10;-5;FL Energie;3184;45.27;4.49;42220
3000;10;30;36;90;-14;R CONFORT;2659;45.11;5.66;38640
2970;24;30;37;-5;-17;Tenesol;3311;46.00;5.77;1420
5000;40;35;36;-10;1;ISOWATT;5849;45.56;5.37;38110
3330;21;35;36;20;1;Perso;3887;45.58;5.41;38110
3000;24;30;;Sud;-7;ISOWATT;3281;45.65;4.36;42140
8750;68;20;35;105;-4;CAP ECO ENERGIE;7770;46.32;5.42;1250
2940;21;35;37;Sud;1;CLIMACIEL;3516;45.93;4.80;1600
3060;25;25;37;-10;-1;PCIM PV SOLUTIONS;3579;45.75;4.72;69290
2380;14;25;37;-35;-2;Cartelectronic;2686;45.72;4.21;42110
0;20;20;;-40;;"Groupe Energ&eacute;tique de France";0;45.64;5.19;38290
6000;49;30;;0;;ISOWATT;0;46.10;4.32;69470
9000;66;35;36;10;-1;CPAE;10603;45.39;5.37;38690
3000;28;25;;45;0;SPER;3106;45.52;4.60;42800
2200;17;20;37;-40;-1;Evasol;2446;45.81;4.70;69890
9000;60;25;36;20;2;SADEJA SOLAIRE;10272;46.18;5.17;1310
6120;36;20;35;-55;0;Fe Solar;6656;45.05;5.68;38450
3000;25;20;36;90;1;"Agence Fran&ccedil;aise de l Energie";2901;46.48;5.11;1560
5880;35;20;36;-80;1;ROSAZ ENERGIES;5925;45.57;5.47;38110
2880;19;40;36;-5;-4;"H&eacute;lios El+ autoconstruction";3354;45.86;4.73;69380
6000;44;15;;45;1;PCIM-GHIS;6001;45.36;4.50;42660
9000;66;25;36;-20;-6;CPAE;10275;45.35;5.59;38500
3000;20;15;37;45;0;ARTIS EN SOLAIRE;3331;45.45;4.76;69420
3000;22;25;36;10;2;"Solha&iuml;c";3575;45.51;5.09;38440
9156;46;15;;Sud;-6;FL Energie;9592;45.48;4.64;42800
3000;18;35;37;-10;-1;Energy France Installation;3477;46.16;4.72;69220
4620;25;25;36;Sud;-1;"Rh&amp;ocirc;ne solaire Pro";5335;45.91;4.70;69480
132312;992;25;;5;-1;MSE;143920;45.86;4.51;69490
2820;18;35;36;-20;1;ECORENOVE;3337;45.59;5.18;38090
0;25;15;;75;;POINT SOLAIRE;0;45.55;4.11;42610
3000;23;30;35;-15;1;mg solar;3571;44.95;5.74;38770
9000;66;30;37;35;-1;CPAE;10377;45.43;5.50;38850
0;40;45;;45;;Rhone Technical Service;0;46.20;5.96;1630
5760;40;30;37;45;-4;PCIM PV SOLUTIONS;6150;45.23;5.41;38470
2750;16;30;35;15;3;confort solution energie;3023;45.42;4.32;42230
5000;32;15;36;45;-2;ISOWATT;5294;45.54;4.18;42450
2100;16;15;37;-45;0;Energia;2305;45.73;4.85;69008
8990;31;35;37;-5;-7;ACFER;10530;45.97;5.54;1110
6000;38;20;35;90;0;lumensol;5451;45.46;4.51;42400
6250;48;30;37;Sud;0;terre energie;7333;45.36;5.59;38500
4000;27;30;;Sud;-1;MJ Energies;4348;46.12;3.92;42640
3750;23;30;37;50;-1;veoli/ecorenove;4110;45.63;4.68;69440
3500;21;20;37;75;1;ISOWATT;3664;45.82;4.90;69140
2600;17;20;37;10;-1;123 Solaire;2941;46.01;4.68;69400
8640;45;20;35;15;-1;FL Energie;9452;45.36;4.49;42660
5000;33;15;37;Sud;-4;Marino;5717;45.22;5.76;38700
1980;12;20;36;Sud;-1;PIENERGIE / CPAE;2274;45.35;5.31;38590
3000;18;30;37;-50;9;ECORENOVE;3204;45.23;5.68;38120
3420;21;45;37;-60;-1;?;3606;45.37;5.51;38140
2940;20;20;37;-60;-2;FL Energie;3060;45.55;4.58;42800
1200;20;60;36;-40;-1;MARCIANO;1200;46.16;3.99;42640
2940;24;15;;70;0;FL Energie;2826;45.41;4.36;42150
0;20;20;;-30;;inconnu;0;46.11;4.74;69220
576;20;45;;5;;NOVASOL;0;45.29;5.63;38340
6000;40;35;36;-45;0;mysun ecorenove;6674;45.52;5.36;38300
2960;21;30;36;-45;-5;TENDANCE ECO;3404;45.40;4.67;42410
7000;40;25;37;-90;-1;HABITAT SOLUTIONS DURABLES (69400 Gleize);6830;45.75;4.73;69290
8960;60;20;37;-40;-4;sarl renov immo;9713;45.31;5.50;38210
3000;21;15;36;-45;5;AB Services;3192;45.90;5.35;1150
7194;38;20;36;Sud;3;PCIM PV SOLUTIONS;8393;45.55;5.06;38790
3000;20;15;36;-20;-2;MARCIANO SPER;3312;45.57;4.43;42140
3000;24;25;37;20;0;Solutions Soleil Energie;3517;45.78;4.82;69300
9500;57;20;36;-135;1;"H&amp;amp;amp;eacute;lios El+ autoconstruction";8110;45.66;5.28;38460
3500;24;15;37;Sud;0;AEN;4066;45.45;4.86;38138
6120;50;15;;5;-1;elec;6739;45.88;5.14;1800
2940;20;15;36;Sud;-2;FAUCHE CENTRE EST;3221;45.50;4.19;42680
2970;15;15;36;-70;-10;Lumensol;3184;45.11;5.67;38640
2760;24;30;37;-45;0;minodier ;3196;45.37;4.78;38550
2300;20;25;36;-60;-1;solaris energie solaire;2434;45.95;5.35;1500
250;24;20;37;60;1;Solr elec;272;45.70;4.93;69800
1800;10;20;36;-45;-4;Moi meme;1986;45.83;4.65;69210
6000;39;25;36;-45;-1;Isowatt;6440;45.68;4.37;69610
2040;3;20;37;20;0;perso;2351;45.76;4.87;69100
2760;15;30;36;-35;-5;"S.E.S. Solaire Energies Syst&amp;amp;egrave;me";3053;46.06;5.37;1160
2790;22;35;37;-45;-2;IDEOSUN (OMEOSUN);3078;45.83;4.60;69210
3000;15;20;37;-180;-3;ISOWATT;2331;45.73;4.01;42130
6240;41;30;34;-40;-5;Sol air confort;6637;45.39;4.26;42490
3000;16;30;36;Sud;-2;FORM QUALIPV    CASTELLANOS Philippe;3439;45.53;4.23;42160
29250;218;15;37;50;-2;SOLAR DEVELOPPEMENT;31754;45.87;4.82;69250
6000;35;30;37;5;-1;Rhone Solaire Pro;7102;45.74;4.74;69340
4000;24;20;36;-60;-5;systeme solaire;4023;45.46;4.36;42390
3000;20;20;37;Sud;-1;ASF;3572;45.46;4.80;38121
2500;22;25;37;Sud;-10;R-Sol-Elec;3009;45.16;5.68;38170
7020;45;15;37;Sud;-1;Frederic Cabot;7894;45.74;4.69;69290
3300;20;30;37;-90;-3;a;3095;46.11;3.90;42820
2640;20;35;37;45;2;Personnelle;2988;45.90;5.19;1800
4480;20;30;37;-60;0;Tendances eco;4842;45.64;4.83;69360
7200;40;15;37;20;0;ENERGISOL;8024;45.97;4.79;1600
2000;10;70;36;Sud;-1;confort de l habitat ;2151;44.95;5.77;38119
2000;10;15;37;20;-5;pienergies Saint Egreve 38;2172;45.23;5.81;38330
2943;15;20;37;Sud;0;PCIM ;3526;45.42;4.81;38550
180;80;15;37;-45;-3;guignol;194;45.63;4.51;69590
2960;32;20;37;-20;-1;VMT;3341;45.33;5.57;38430
3290;25;30;35;Sud;4;novasol;3723;45.06;5.56;38250
2880;24;20;36;15;0;Air et Chaleur d Aujourd hui;3213;45.58;4.43;42140
3000;16;15;36;Sud;-1;ENERGIE HABITAT - ECORENOVE;3398;45.80;4.81;69450
2200;17;20;37;-45;-3;Sunwatt;2379;46.25;5.99;1630
2400;13;20;36;10;-2;"moi m&amp;amp;amp;amp;amp;amp;amp;amp;amp;ecirc;me";2636;45.41;4.29;42230
3000;25;40;37;-70;-2;Nouvelle Vague;2991;46.25;5.99;1630
500;3;35;36;10;1;AUCUN;578;46.25;4.91;1290
2400;20;20;36;45;-2;Solar Protect (n existe plus);2678;45.46;4.76;69420
3600;19;25;36;Sud;2;Sadeja;4127;46.19;5.20;1000
9000;60;30;36;Sud;2;Solartec;10404;46.33;5.18;1340
0;24;15;;Sud;;"Ecosyst&amp;amp;amp;egrave;me nouvelles &amp;amp;a";0;45.43;5.42;38690
3885;20;30;35;-5;-11;Inconnu ;4389;45.67;5.67;1300
1480;10;80;36;Sud;-1;Elececoenergie;1311;46.10;5.41;1450
2960;21;30;37;-45;-2;VIVALDI ENVIRONNEMENT;3268;45.99;4.62;69640
6160;44;60;37;25;0;avenir energie;6791;45.56;4.77;69700
1500;9;20;35;45;-2;Ricchi;1523;45.22;5.86;38420
3360;28;30;37;-5;-3;ATSUN ;3867;45.22;5.80;38330
2880;21;25;37;5;1;Soleil en Tete;3423;45.73;4.96;69680
2960;22;35;36;Sud;-2;lepargneur;3382;45.63;4.39;42140
2800;21;40;37;Sud;0;eliomax 69200;3347;45.67;4.81;69540
1260;20;15;36;15;2;ARTYS SOLAR - 7 Energies;1425;45.74;5.17;38230
2520;21;15;37;-45;0;Asp energies;2761;45.77;4.88;69100
2880;20;15;36;Sud;-1;ECO ENERGIE SYSTEMES;3162;46.22;4.67;69840
1560;10;20;37;-45;-1;non;1728;46.31;6.08;1170
11960;110;10;37;90;-1;DIY;12055;45.71;4.74;69630
5100;28;30;36;45;0;ISOWATT;5673;45.62;5.53;38630
3000;20;40;36;-90;-3;ARTEMIS CONCEPT;2654;45.48;4.45;42290
6300;60;30;37;45;-1;Artemis concept;6929;46.11;4.74;69220
3000;10;45;36;-45;1;Enovia;3290;45.60;5.44;38110
6000;30;30;34;-45;15;lumensol;6126;45.07;5.41;38680
3150;22;30;36;Sud;0;7 ENERGIES;3634;46.16;5.26;1250
2040;21;45;33;Sud;-2;EDF ENR;2300;45.23;5.95;38190
4500;30;20;37;-40;-1;thermoconcept forezien;4951;45.79;4.16;42110
6000;38;15;36;Sud;-3;LUMENSOL;6848;45.42;5.31;38260
1008;16;40;35;-45;1;les techniciens du solaire;1022;45.39;5.99;38570
3240;18;15;37;90;0;ERDS;3235;45.73;4.77;69340
1650;20;35;37;-140;1;Xx;1175;45.74;4.97;69680
3150;18;15;37;-10;1;RIE;3595;45.74;4.97;69680
2970;150;15;37;-160;0;superplombier;2585;45.69;4.94;69800
3250;18;30;36;10;2;SADEJA Solaire;3791;46.13;5.16;1960
3000;12;30;36;Sud;-1;RTS;3288;45.46;4.35;42390
5600;40;10;37;-20;0;NC;6123;45.77;4.78;69130
2940;22;20;37;-10;1;APESUD;3409;45.87;4.85;69250
1152;24;15;36;45;-2;SolR Elec;1249;45.15;5.31;38160
6000;33;15;36;60;-2;Rhone Solaire Pro;5974;45.50;4.57;42420
0;13;25;;90;;CPAE;0;45.39;5.50;38140
1224;20;20;36;45;2;sarl SOL ENERGY;1348;45.83;5.21;1800
2700;21;30;37;-5;-1;captelia;3168;45.87;4.67;69380
2960;22;45;37;Sud;-2;NVLENERGIE;3377;46.19;3.91;42310
2160;16;20;36;-90;0;air solaire;2079;45.54;4.61;42800
2100;16;30;37;-95;1;SOLERINE Energie;1978;45.87;4.91;1700
960;20;25;37;-20;0;FRANCE SOLAIRE;1104;46.24;6.02;1630
6300;32;50;38;30;-11;Sowatt;7141;45.30;5.87;38660
3000;30;30;37;90;1;Alpsoleil ;2972;45.44;4.77;38370
3050;15;20;36;45;0;AGPG;3467;45.25;5.77;38700
1200;6;35;36;Sud;-13;moi meme;1443;45.16;5.68;38170
2880;20;20;36;-160;3;solar total;2317;45.92;5.34;1150
9240;60;20;36;45;-3;Artemis;9666;45.50;4.54;42320
1850;6;25;36;45;0;Energia ;2050;45.63;5.57;38630
3000;19;20;36;80;3;ecorenove;3066;45.92;5.34;1150
3360;19;25;34;Sud;-11;toto;3483;45.25;5.93;38190
2940;23;30;36;Sud;0;photocapt;3527;45.62;4.87;69360
675;37;35;38;Sud;-11;Moimeme;771;45.28;5.88;38190
1800;9;25;37;115;0;Rconfort;1582;46.01;4.75;1480
5886;29;30;35;5;-8;Watt et Home;6481;45.29;5.48;38210
2820;20;20;36;-180;2;Savoie Solaire;2283;45.56;4.91;38200
1220;15;45;37;Sud;-1;tenesol;1440;45.72;4.69;69126
2943;14;20;36;Sud;1;capeco;3406;45.65;4.84;69360
3000;23;10;37;-90;-6;ECORENOVE;3073;45.18;5.70;38000
5400;30;30;36;45;1;Isowatt;5934;46.28;4.92;1290
2700;24;30;36;Sud;-4;Nsp;3135;45.56;4.66;42800
2970;24;25;36;-10;-2;Pienergies;3466;45.29;5.62;38340
3000;16;15;37;Sud;-1;protecenergy;3318;46.11;4.73;69220
1400;20;20;36;-45;-3;EcoEnvironnement-Renov France;1463;45.53;4.56;42800
2568;20;15;36;45;0;Bch;2826;45.66;4.89;69960
2800;20;30;37;45;-3;APESUD;3023;46.12;4.62;69430
2970;25;30;36;-10;-7;LEPARGNEUR;3478;45.14;5.70;38130
1860;12;20;37;75;1;Moi;1945;45.87;4.85;69250
1760;30;25;36;35;-3;inconnu;1885;45.25;5.89;38190
2940;23;15;37;Sud;-1;ERDS;3244;45.77;4.09;42110
6000;30;25;36;10;2;sans;7101;45.64;5.01;69780
2000;11;35;35;Sud;19;Autoconstruction;2893;45.95;5.61;1110
3000;17;20;36;-90;2;Solution Soleil Energie;2906;46.21;5.11;1310
2100;13;20;36;60;0;vent solaire;2274;45.60;4.84;69360
2640;13;35;37;-75;-1;edf enr;2570;46.07;4.06;42300
6000;40;20;36;-70;0;a l eau solaire;6280;45.59;5.22;38080
9000;52;20;36;-85;1;Solution Soleil Energie;9036;45.99;4.90;1330
29250;218;15;37;Sud;-2;solar developpement;33103;45.87;4.82;69250
2960;22;20;37;Sud;-3;solaire sipn;3293;45.32;5.54;38430
1620;10;20;36;Sud;-2;Autoconstruction;1838;45.10;5.24;38840
0;12;30;;Sud;;?;0;45.45;4.08;42380
6120;60;30;36;15;-1;rts;7073;45.34;5.37;38590
10000;60;25;36;Sud;-1;pcim;11871;45.59;5.02;38540
9000;50;30;37;30;-2;ID ELEC;10105;46.23;5.97;1710
2880;21;35;37;Sud;-6;prosoleil;3503;45.19;5.69;38600
900;5;25;35;-60;0;PCI-m;912;45.38;4.28;42700
2320;14;20;36;-180;-1;Groupe Solution Energie;1805;45.52;4.61;42800
5220;30;15;36;Sud;-2;GSE COMFORT SOLUTION ENERGIE;5642;45.38;5.64;38960
2940;18;20;36;Sud;2;eco alternative;3384;45.86;5.22;1800
2500;16;45;37;-145;0;Habitat enr ;1509;45.77;4.76;69130
2400;12;30;36;-45;-3;moi;2701;45.70;4.81;69310
9000;62;15;36;15;5;Solution soleil energie;10175;45.90;5.17;1800
2590;20;25;36;Sud;1;Ne sais pas;3063;45.61;5.14;38090
2880;30;35;36;45;3;LEPARGNEUR;3309;45.58;5.08;38790
3000;23;40;37;90;1;ECORENOVE;2818;45.87;4.91;1700
6250;40;30;36;-10;-2;ENEOPRO;7020;45.88;3.82;42430
2940;20;20;37;-175;1;solaire direct;2358;45.78;5.00;69330
2500;20;20;36;5;2;Airsolaire;2787;46.28;5.29;1370
3000;18;30;33;-20;7;ECORENOVE;3125;45.06;5.83;38220
1920;16;15;36;-45;0;evasol;2044;45.84;4.41;69170
2940;16;35;;30;;FL Energie;0;45.51;4.53;42320
2200;20;20;;-5;;Travo d Avenir;0;45.59;4.80;69360
3000;28;15;37;45;0;bois devlopement;3381;45.35;5.10;38260
2625;22;20;;25;;ENERCOS technologies;0;45.52;4.60;42800
3000;24;25;35;80;-2;Conergy;2867;45.43;4.33;42230
2800;24;20;;90;;MDA ENERGIE NOUVELLE;0;45.66;4.03;42600
2325;125;20;;20;;"abc &eacute;nergie solaire";0;45.64;4.04;42600
672;21;30;;50;;Evasol;0;45.92;4.59;69620
1100;10;25;;-25;;SUNWATT;0;45.83;4.97;1700
2450;19;20;35;-5;-2;ENERCOS technologies;2650;45.42;4.30;42230
2875;25;35;;-70;;A l Eau Solaire;0;45.64;5.19;38290
3000;22;40;37;85;-8;Fe Solar;2696;45.45;5.99;38530
2800;21;25;37;-90;-2;PHOTON TECHNOLOGIES;2744;45.77;4.66;69290
2880;20;40;;10;0;SWEETAIR ENERGIE;3579;45.39;5.62;38960
2940;21;25;;-65;;ENERCOS technologies;0;45.95;5.18;1800
2940;18;20;36;10;-2;"SES Solaire Energies Syst&egrave;mes";3269;45.80;4.53;69690
2450;22;20;;70;;ENERCOS technologies;0;45.53;4.61;42800
2400;21;20;;-40;1;SOL R ELEC;2854;45.15;5.34;38160
2996;23;20;37;30;-1;ENERCOS technologies;3309;45.77;4.26;42110
2940;20;20;37;50;-1;"SES Solaire Energies Syst&egrave;mes";3168;45.97;4.69;69400
2990;16;20;36;95;-2;FL  Energie Sarl;2830;45.56;4.28;42340
378;1;0;;-75;;neant;0;45.43;6.01;38530
2880;29;20;;Sud;-1;R. LEPARGNEUR;3479;45.58;4.69;69700
2760;18;30;36;Sud;1;"SES Solaire Energies Syst&egrave;mes";3322;45.55;5.01;38780
3000;21;35;36;Sud;1;DELTASUD;3478;46.26;4.91;1290
2970;27;20;;50;;a2 energie;0;45.91;5.21;1800
2800;21;25;36;10;-3;EDF ENR;3163;45.95;4.53;69620
2970;25;20;37;30;1;S comme solaire;3381;45.93;4.81;1600
2996;18;25;37;-45;-1;FL Energie;3280;45.82;4.20;42510
3000;25;25;36;15;2;R.LEPARGNEUR;3574;45.58;5.08;38790
3000;24;25;;50;1;SOL R ELEC;3553;45.14;5.80;38320
2100;20;30;;Sud;;sweeatair;0;45.39;5.96;38530
2700;21;20;37;-15;-2;Evasol;3121;45.81;4.75;69570
1860;16;25;;45;-1;SWEETAIR ENERGIE;2147;45.43;5.43;38690
2940;21;40;37;Sud;0;"SES Solaire Energies Syst&egrave;mes";3485;45.62;5.52;38630
4800;48;20;;-25;;solaris energie solaire;0;45.60;4.61;69440
5130;32;30;36;-90;2;lumensol et isowatt;4874;45.89;5.34;1150
2400;34;20;35;-50;-4;123 Solaire;2461;45.45;4.44;42650
2700;18;15;;-10;0;R. LEPARGNEUR;2675;45.48;4.57;42740
2970;23;15;37;-10;0;Superplombier;3377;45.69;4.90;69200
2970;24;20;;30;;SOLANE;0;45.59;5.22;38080
2940;24;35;;Sud;;ABC ENERGIES;0;45.39;4.23;42240
2996;18;20;37;10;0;ENERCOS technologies;3533;45.48;4.77;69420
1750;14;40;36;Sud;-1;SWEETAIR ENERGIE;2052;45.33;5.26;38870
3000;22;20;36;-30;-3;ENERCOS technologies;3198;45.54;4.59;42800
3400;37;20;;-45;;TOTAL ENERGIE;0;45.63;4.64;69440
2520;18;30;;70;;charvet /didier merle;0;45.40;5.70;38380
2100;16;30;;30;-1;ELIOMAX;2581;45.65;4.94;69780
2996;19;35;37;-45;-2;THERMO CONCEPT FOREZIEN;3247;46.07;3.95;42640
2800;21;30;36;Sud;1;PHOTON TECHNOLOGIES;3286;46.13;4.96;1400
3000;22;20;;Sud;-6;Electricite FESSY BIOSSET;3055;46.09;3.88;42820
2880;22;30;;20;-2;Amisoler;3102;45.27;5.87;38920
3000;29;35;35;15;-5;"Soleil en T&ecirc;te";3447;45.31;5.26;38870
2996;18;20;;-40;;ENERCOS technologies;0;45.55;4.80;69700
2000;16;35;;Sud;-1;Eco-Energie Systemes;2386;45.94;4.22;42470
2970;25;25;;Sud;;Soalis;0;45.34;4.83;38150
3000;25;35;;-85;;LEPARGNEUR;0;45.75;4.73;69290
0;24;20;;30;;A l Eau Solaire;0;45.61;5.33;38300
2160;18;35;36;90;1;Vent solaire applications;2092;45.56;5.16;38090
2790;21;20;;40;;IDEOSUN;0;45.36;4.36;42660
2550;25;20;36;Sud;-5;SOL R ELEC;2760;45.29;5.49;38210
2340;18;30;;-5;;Superplombier;0;45.38;4.77;38550
2160;21;30;;80;;MCO SUN (LFE);0;45.77;4.68;69280
3000;24;25;36;5;-2;FAUCHE centre EST;3399;45.52;4.25;42160
2200;20;20;;Sud;;"Solha&iuml;c";0;45.64;4.80;69390
2460;18;20;36;Sud;-2;ENERCOS technologies;2781;45.18;5.76;38400
2880;24;30;36;-45;-2;ARC Habitat;3157;45.12;5.77;38320
2940;23;30;;Sud;;VMA ENVIRONNEMENT;0;45.39;5.48;38140
2996;18;25;36;-20;2;PHOTON ENERGIE;3435;45.58;5.32;38300
2775;21;40;;Sud;;BIO SOL Air;0;44.95;5.74;38770
2960;25;20;;-30;;A l Eau Solaire;0;45.68;4.53;69850
3000;25;20;;35;;Au Soleil De France;0;45.36;4.66;42520
3100;27;20;;-20;;ENERCOS technologies;0;45.50;4.72;69420
2800;21;20;37;-15;0;ELIOMAX;3245;45.80;4.88;69140
3150;25;20;;30;;ENERCOS technologies;0;45.41;4.79;38550
1620;11;70;35;-5;-2;MJF;1507;45.43;4.40;42100
2520;15;30;36;5;1;PHOTON ENERGIE (38 st savin);2985;45.62;5.46;38890
2940;18;30;37;90;1;123 Solaire;2865;45.75;4.94;69150
3000;25;20;;-20;;R. LEPARGNEUR;0;45.75;4.72;69290
2520;18;20;37;25;-2;EODIS;2866;45.76;4.66;69290
3000;20;25;;10;-1;jp;3252;45.29;5.49;38210
2100;20;25;;15;;SWEETAIR ENERGIE;0;45.41;6.09;38580
9010;68;20;37;-5;-1;EMS;10398;45.74;4.75;69340
2940;22;30;37;-90;0;Evasol;2812;46.01;4.75;1480
2940;20;25;;10;;AQTB;0;45.29;5.49;38210
2100;14;25;;-5;;Electro Energie Diffusion;0;45.88;4.77;69380
2000;20;25;36;20;2;solaris energie solaire;2318;45.61;5.33;38300
2940;23;20;36;-45;-5;Capt en;3189;46.23;5.96;1710
2450;18;30;36;Sud;-3;SWEETAIR ENERGIE;2732;45.14;5.80;38320
2160;21;25;;15;;Avenir Solaire;0;45.75;5.29;38460
2880;24;20;35;-10;-9;SOL R ELEC;3257;45.40;5.56;38850
2880;21;20;37;-15;1;Solaris-enr;3349;45.70;5.03;69720
3000;25;20;;-70;;R. LEPARGNEUR;0;45.70;4.97;69800
2300;14;45;38;20;-19;AQTB;2529;45.34;5.90;38660
2880;24;20;;20;;"Solha&iuml;c";0;45.59;4.90;38200
2960;21;30;37;20;-1;TENDANCES ECO HABITAT;3340;46.13;4.03;42640
2996;24;35;33;20;3;DISPARU;3449;45.01;5.76;38220
2520;15;45;37;-5;-2;"SES Solaire Energies Syst&egrave;mes";2994;45.38;5.53;38140
3000;30;20;37;-35;-3;Sol R Elec;3422;45.25;5.84;38330
2160;15;20;38;10;-18;AQTB;2400;45.34;5.90;38660
2880;21;20;37;-20;-2;ERDS;3263;45.63;4.68;69440
2800;21;20;37;-10;-3;BS AUTOMATION;3163;45.52;4.06;42560
1000;10;25;37;Sud;1;?;1188;45.70;4.93;69800
2880;24;20;37;-10;2;INTI PRO CONCEPT;3313;45.90;5.19;1800
3150;23;25;;Sud;-2;Eco Alternatives;3412;45.27;5.87;38920
2880;25;35;37;Sud;-7;SWEETAIR ENERGIE;3289;45.26;5.87;38190
2760;17;20;37;-15;-1;"SES Solaire Energies Syst&egrave;mes";3057;46.06;5.37;1160
2520;21;20;;75;;INTI PRO CONCEPT;0;45.99;5.16;1320
3600;20;10;37;50;-6;Oscaro Energy;3635;45.26;5.88;38190
2880;24;20;36;90;1;SOLHAIC;2891;45.65;4.95;69780
4800;31;25;36;20;9;Lumensol;5601;45.22;5.68;38120
2040;20;30;36;45;-1;Solar energie;2215;45.52;4.61;42800
1920;10;20;33;40;6;moi;1928;45.21;5.85;38420
1850;18;35;36;30;-2;SolarFranck;2027;45.94;3.80;42830
2240;13;30;38;Sud;0;Popsun;2696;45.83;5.71;1350
9000;57;20;36;Sud;-3;ISOWATT;10174;45.70;4.59;69510
1320;25;25;36;-30;10;pienergies;1468;45.22;5.68;38120
3000;15;30;37;-5;-4;AB service;3535;46.34;6.12;1220
2996;18;30;37;-70;1;genie thermie;3144;45.72;5.00;69740
2970;24;15;37;Sud;0;"soleil en t&amp;amp;ecirc;te";3328;46.07;4.75;1090
3600;19;15;37;Sud;-2;ecorenove;3825;46.26;5.66;1100
2970;23;30;37;-5;-5;SOGELEC 73 rue des Javaux   38320-Eybens;3609;45.19;5.69;38600
4900;32;40;36;45;1;auto-constructeur;5483;45.75;5.17;38230
9000;59;15;36;-90;0;ISOWATT;8962;45.51;5.41;38690
2400;8;20;36;Sud;0;Effy;2741;45.51;5.45;38730
2943;15;25;36;-60;-2;PCIM;3037;45.40;4.28;42700
9000;40;20;36;-45;-8;isowatt;9391;45.79;3.84;42111
3000;20;35;36;-30;2;DMS;3437;45.76;5.19;38230
3000;44;10;36;20;-9;energissimo;3255;45.22;5.77;38700
3000;20;20;36;45;1;Edf enr;3387;45.58;4.91;38200
1800;9;30;37;-85;0;netad;1773;45.77;4.87;69100
2520;28;15;36;-45;5;B TECH  ;2748;45.79;5.03;69330
3100;16;30;36;35;8;FE Solar;3579;45.25;5.66;38120
3450;21;15;36;45;2;solair direct;3739;46.12;5.16;1960
2120;13;20;36;-25;-12;Autoconstructeur;2373;45.33;5.48;38140
3000;16;35;36;30;1;moi;3537;45.59;5.12;38090
1950;18;30;36;Sud;1;soleil en tete;2305;45.67;5.40;38510
2880;20;45;37;Sud;-1;edf;3259;46.06;4.07;42300
3000;17;60;36;45;1;Lumensol;3084;45.55;5.64;38480
2220;25;25;37;-90;1;Ultimate Solar, Ludivine Energie;2182;45.76;4.95;69150
3000;18;30;36;-30;-2;artemis concept;3314;45.21;5.41;38470
1708;15;35;36;-90;0;tenesol;1627;45.66;4.95;69780
2500;10;30;36;10;-2;ENR HABITAT;2836;45.81;4.58;69210
960;20;30;34;Sud;4;SOLWATT ;1077;45.18;5.79;38610
2960;21;15;36;-45;-13;ENERGIA;3088;46.04;3.91;42370
3000;18;20;37;Sud;1;GSDF;3508;45.76;4.96;69150
3000;15;15;36;-90;2;les techniciens du solaire;2962;45.57;4.70;69700
3600;15;30;36;-90;2;MOI;3371;46.12;5.19;1240
2000;15;25;36;80;2;evasol;1994;45.80;4.62;69210
3000;16;15;37;Sud;-3;ALTERNAWATT;3341;45.60;4.08;42600
6240;40;45;36;-90;1;Lumensol;5616;45.59;5.43;38110
9000;50;40;34;40;3;Role Energies;9878;44.83;5.93;38970
39480;265;20;35;Sud;-6;BS AUTOMATION;42608;45.75;3.94;42130
28800;1200;10;37;100;1;"l &amp;eacute;lectricit&amp;eacute; SCOP";28894;45.74;4.90;69500
2400;17;15;36;15;-2;ENERCOS technologies;2751;45.43;4.68;42410
1980;15;30;;45;;ID ELEC;0;46.24;5.97;1710
2800;21;20;;30;-8;Eco Alternatives;3138;45.84;4.49;69490
1980;15;20;;Sud;;Pi energies;0;45.24;5.67;38120
0;23;15;;-45;;Mecamidi;0;45.39;4.77;38550
2850;20;30;37;Sud;0;Electro Energie Diffusion;3340;45.84;4.69;69380
2000;16;45;38;-5;-17;AQTB;2415;45.31;5.88;38660
2700;19;35;;45;;123 Solaire;0;45.28;5.84;38660
2880;24;25;36;20;-3;EPB - Jacky GACON;3269;45.53;5.52;38490
2880;23;25;;80;;Solaire Direct;0;45.43;4.32;42230
2940;23;25;36;35;-14;ENERCOS technologies;3176;45.37;5.49;38140
2990;18;30;;5;;R. LEPARGNEUR;0;45.53;5.58;38490
2970;23;20;;60;-1;Bresse energie renouvelable;3013;46.29;5.15;1340
2040;16;40;35;-15;19;SOLAIRE ATTITUDE;2223;45.25;5.74;38950
2970;25;30;36;-50;3;A l Eau Solaire;3226;45.69;5.21;38460
3000;15;25;37;-95;-1;enr watt;2875;45.67;4.70;69510
2520;15;25;37;-40;0;123 Solaire;2849;45.79;4.78;69130
2000;16;20;37;45;-2;TOUT EN SOLEIL;2212;45.79;4.78;69410
2940;20;30;37;45;-4;ENERCOS technologies;3148;45.24;5.83;38330
2960;25;20;37;-45;0;"Soleil en T&ecirc;te";3275;46.02;4.84;1480
2880;24;20;;-35;2;SOL R ELEC;3210;45.41;5.55;38850
2800;21;20;37;20;-1;PHOTON TECHNOLOGIES;3194;45.65;4.72;69530
2940;18;20;;-60;-2;123 Solaire;2953;45.83;4.65;69210
3000;30;25;37;-15;-1;CPAE;3534;45.39;5.49;38140
1650;13;25;37;-10;0;ID ELEC;1934;46.30;6.08;1210
2520;19;20;;-75;;Solutions Soleil Energie;0;45.74;4.96;69680
1800;21;30;;Sud;-18;SWEETAIR ENERGIE;2071;45.10;5.66;38760
2940;23;20;36;20;1;ENERCOS technologies;3389;45.60;4.82;69360
2940;22;25;36;80;0;Evasol;3002;45.61;4.83;69360
2940;24;20;36;30;0;ARTIS EN SOLAIRE;3206;45.49;4.26;42170
3000;22;25;37;45;1;Thermatec/ALTESOL;3407;45.77;5.00;69330
2672;21;30;36;10;-2;alp sun;3133;45.11;5.72;38800
1840;13;20;36;-20;3;a2 energie;2100;45.93;5.22;1800
2940;18;30;;10;;PHOTON ENERGIE;0;45.64;5.41;38890
1200;12;15;36;45;0;Eco Alternatives;1320;45.66;4.88;69960
2640;20;20;;10;;123 Solaire;0;45.46;4.52;42400
3010;23;20;36;-10;-2;DELTASUD;3345;45.77;4.54;69690
3000;23;20;;-80;;123 Solaire;0;45.48;4.57;42740
2940;24;30;37;35;0;123 Solaire;3403;45.73;4.86;69008
2550;20;30;37;-90;-4;123 Solaire;2398;46.10;5.53;1430
2970;23;20;37;20;-8;Argivelec :-(;3228;45.27;5.87;38920
2940;24;20;37;-90;-1;123 Solaire;2896;45.82;4.67;69210
4400;20;20;;-70;;solstice sarl;0;46.13;5.66;1130
2640;20;20;37;-50;1;123 Solaire;2920;45.84;5.04;1120
2860;22;20;36;20;0;123 Solaire;3295;45.66;4.89;69960
2940;23;25;;-60;-5;SWEETAIR ENERGIE;3404;45.27;5.84;38190
2100;25;20;37;10;0;123 Solaire;2387;45.91;4.78;69650
2950;17;25;37;-5;-2;a2 energie;3466;45.37;5.53;38140
2970;23;15;36;-5;-7;Watt et Home;3149;45.29;5.48;38210
2160;16;25;36;Sud;3;123 Solaire;2509;45.69;5.21;38460
2880;21;25;36;85;0;GENELEC MORIN;2834;45.54;5.50;38110
2940;18;20;37;40;-2;ENERCOS technologies;3281;45.22;5.78;38240
2700;22;10;35;-20;-8;GSOLR;2920;45.62;4.75;69700
2960;22;30;;-90;;Futur elec;0;45.93;4.81;1600
1980;17;20;;20;;123 Solaire;0;45.68;5.04;69720
2100;20;25;;Sud;;SWEETAIR ENERGIE;0;45.14;5.26;38160
2990;25;20;;20;;"BIOSSET.F &amp;eacute;lectricit&amp;eacu";0;46.14;3.86;42310
15400;110;90;;15;;INTI PRO CONCEPT;0;45.85;5.11;1360
2880;22;15;36;40;-8;Solutions Soleil Energie;3046;45.81;4.49;69690
2925;22;20;36;10;-5;ENERCOS technologies;3330;45.23;5.33;38470
2940;19;20;;-60;;ENERCOS technologies;0;45.52;4.58;42800
2940;18;20;37;45;-8;www.Pienergies.com;3062;45.25;5.85;38330
2940;18;20;37;65;-2;123 Solaire;3067;45.88;4.69;69480
2400;23;30;37;-45;-1;Evasol;2705;45.76;4.83;69001
2970;24;20;36;Sud;1;SOLANE;3239;46.03;4.29;69240
2940;22;25;38;Sud;-3;ENERCOS technologies;3262;46.29;5.67;1100
2730;21;20;;20;;ENERCOS technologies;0;45.61;5.16;38090
2970;23;20;36;-20;0;"Servignat Eco &eacute;nergies";3338;45.97;5.35;1500
3000;22;20;;40;;Evasol;0;45.99;4.06;42120
3000;19;35;36;-15;1;"Solaire Energie Syst&amp;amp;amp;amp;amp";3506;45.58;5.44;38110
2990;21;25;36;-50;2;a2 energie;3274;45.94;5.32;1500
3000;22;20;35;50;27;disparu;3222;45.02;5.71;38450
13275;100;20;;-20;0;ADEISS / ALTERIA;14878;45.55;4.97;38780
2940;19;30;;Sud;-4;ENERCOS technologies;3409;45.46;5.05;38440
1230;17;25;;50;-2;123 Solaire;1316;45.79;4.78;69410
2616;19;20;;-20;0;ARTIS EN SOLAIRE;2826;45.53;4.61;42800
1760;14;25;37;90;0;Electro Energie Diffusion;1702;45.98;4.72;69400
3000;17;20;36;-5;1;Energissimo;3509;45.63;5.06;38540
2790;28;30;;-50;;Domatherme;0;44.95;5.59;38650
2996;18;20;36;-80;2;R. LEPARGNEUR;3077;45.60;4.87;69360
2970;23;15;;-20;;AERS;0;45.86;3.95;42260
2940;18;25;36;-15;1;http://www.tfb-solaire.fr;3438;45.73;5.18;38230
2300;14;35;36;Sud;-2;"SES Solaire Energies Syst&egrave;mes";2550;45.42;5.73;38380
2720;21;30;36;Sud;2;Soleil Plus Energies Renouvelables;3114;45.65;4.33;42140
2940;18;20;;60;;"SES Solaire Energies Syst&egrave;mes";0;45.42;4.81;38550
2100;15;45;37;95;5;ECO LOGIQUE;1833;45.79;5.68;1300
2800;24;25;36;60;-1;sarl ROLHION ELETRICITE;2879;45.41;4.29;42230
2450;18;20;36;-30;-9;S comme solaire;2754;45.29;4.55;42220
3000;25;20;;Sud;-1;SOLANE;3658;45.77;5.00;69330
2090;20;45;;Sud;;Haut Jura Energies;0;45.85;5.29;1150
2940;23;20;38;-30;-11;a2 energie;3222;45.29;5.89;38920
2996;20;25;36;-10;-4;AUTO INSTALLATION;3304;45.29;5.49;38210
2100;16;20;;15;-1;Evasol;2353;45.72;5.00;69740
2300;23;20;;90;;"Solaris - Tr&amp;eacute;voux (01)";0;45.87;4.84;69250
2880;22;20;37;-10;0;"Solha&iuml;c";3351;45.81;4.88;69140
2940;20;15;;Sud;;ENERCOS technologies;0;45.62;4.84;69360
3000;26;25;;-100;;"Soleil en T&ecirc;te";0;45.91;5.33;1150
2940;20;20;37;70;-1;A l Eau Solaire;3081;45.73;4.73;69340
2600;21;20;34;45;0;VIECO;2632;45.40;4.36;42150
2990;18;20;35;-40;2;R. Lepargneur;3131;46.02;4.25;42840
9200;55;20;37;-10;1;R. LEPARGNEUR;10721;45.79;5.04;69330
2960;20;20;37;-35;0;ALDER/ LEPARGNEUR;3336;45.98;4.82;1600
3000;22;20;37;-90;-1;APE SUD;2967;45.72;4.70;69126
2996;18;15;;-10;;123 Solaire;0;45.99;4.77;1480
2616;17;20;34;-40;1;ARTIS EN SOLAIRE;2637;45.44;4.35;42530
2760;17;20;37;-5;1;123 Solaire;3225;45.74;4.96;69680
1350;12;30;36;15;3;"SES Solaire Energies Syst&egrave;mes";1604;45.44;5.38;38690
2880;27;20;;5;0;Au Soleil De France;3552;45.51;5.07;38440
3000;23;25;37;Sud;1;SADEJA SOLAIRE;3550;45.79;5.12;38280
3040;24;20;;Sud;-1;SADEJA SOLAIRE;3451;45.65;4.79;69390
1200;25;20;;-90;;Alpes Bois developpement;0;45.35;5.31;38590
2940;23;30;;-50;;Reyes industrie;0;45.35;5.60;38500
2625;19;20;37;-20;-9;Pi energies;2907;45.27;5.86;38190
3000;23;20;;Sud;;7 ENERGIES;0;46.43;5.26;1270
2520;19;20;36;45;1;VMA ENVIRONNEMENT;3696;45.53;5.18;38440
2940;20;25;37;-15;-1;a2 energie;3429;45.79;4.71;69890
3150;23;35;36;-20;-18;Hydelec Solar;3584;45.05;5.49;38250
2990;18;20;;35;6;ENERCOS technologies;3065;45.46;4.59;42740
2625;19;40;37;-30;-11;Pi energies;2967;45.27;5.85;38190
2040;15;20;;-10;;"Watt &amp; Home";0;45.21;5.76;38700
2850;22;30;37;-10;-9;Solutions Soleil Energie;3242;45.26;5.86;38190
2940;21;30;;-10;;DGBATI ENR;0;45.58;5.19;38080
2880;22;20;36;-30;0;Solutions Soleil Energie;3253;45.64;4.76;69390
2940;23;25;31;45;-4;a2 energie;3032;45.06;5.65;38760
2940;24;20;34;40;14;ARTIS EN SOLAIRE;3083;45.36;4.28;42700
2940;23;20;;30;;a2 energie;0;45.29;5.89;38920
2700;25;20;36;-85;1;SOLARIS Energies solaires;2697;45.96;5.26;1500
3500;28;20;;-95;;Solutions Soleil Energie;0;45.83;4.97;1700
2940;18;20;;20;;ARTIS EN SOLAIRE;0;45.54;4.48;42320
2380;22;25;37;20;-9;Tenesol;2622;45.27;5.86;38190
2880;24;20;;Sud;;"Solha&iuml;c";0;45.87;4.90;1390
3000;24;30;;-40;0;LEPARGNEUR;2993;45.43;4.42;42100
2940;17;25;35;20;-1;SRCT Systemes Solaires;3196;45.39;4.27;42240
2960;21;20;36;85;-2;CHENEVIER TOITURE;2856;45.89;4.30;42114
3000;24;40;37;45;-4;SOL R ELEC;3264;45.33;5.47;38140
2800;20;25;;10;0;Pi energies;3146;45.34;5.55;38500
2928;22;20;36;-25;-2;AT;3247;45.56;4.27;42340
2940;18;15;;5;-1;ERDS;3396;45.84;4.62;69210
3000;16;20;37;-25;-1;a2 energie;3449;45.45;4.74;42410
2800;22;20;;Sud;;ENERCOS technologies;0;45.58;4.87;38200
2960;20;35;;-35;;WATT et HOME;0;45.13;5.58;38250
2970;23;20;37;-65;-1;delta sud/www.energie-rhone.fr;3107;45.92;4.64;69620
2996;18;20;;80;;a2 energie;0;46.16;4.34;42670
2940;18;25;36;-15;0;123 Solaire;3449;45.68;4.85;69190
2996;18;20;37;5;1;INTI PRO CONCEPT;3501;45.75;5.06;69330
2795;24;25;36;-40;-5;a2 energie;3168;45.80;4.88;69140
2940;18;25;36;55;-1;Dimension Energie;3103;45.49;4.27;42170
2940;21;30;;-180;;SOLELUX;0;46.24;5.96;1710
2400;22;30;37;-90;27;SOL R ELEC;1824;45.26;5.66;38340
1440;12;20;36;Sud;1;Pi energies;1660;45.61;5.21;38080
3060;24;30;33;40;-5;AQTB;3130;45.23;5.93;38190
2775;20;30;;45;-1;ELIOMAX;3309;45.65;4.94;69780
2940;18;25;36;Sud;1;SOLANE;3504;45.58;4.91;38200
2940;23;20;38;-55;-16;a2 energie;3108;45.29;5.89;38920
2970;22;30;36;40;2;KBE Solaire;3380;45.31;5.64;38340
2970;25;20;36;55;1;lpg;3220;45.78;5.20;1360
2940;30;30;37;-45;3;SIAME;3293;45.22;5.68;38120
2940;22;40;35;Sud;-2;S comme solaire;2989;45.34;5.97;38570
2940;18;20;;-60;-2;ARTIS EN SOLAIRE;3249;45.64;4.04;42600
2100;13;20;;45;-1;123 Solaire;2431;45.75;4.87;69003
2975;23;20;36;80;16;solaris energie solaire;3034;45.84;5.43;1150
2940;23;20;36;-50;-2;ARTIS EN SOLAIRE;3304;45.49;4.92;38200
1708;21;15;;-90;;genie confort /domatherm;0;45.42;4.32;42230
3000;24;20;;Sud;-1;rmatech energies;3664;45.39;5.43;38690
2400;21;40;;-10;;SUBSUN;0;45.39;4.27;42700
2960;21;20;;-10;;LEPARGNEUR;0;45.62;4.21;42210
2850;22;20;37;-30;-1;123 Solaire;3231;45.77;4.70;69280
2940;21;35;34;-70;-9;a2 energie;2762;45.25;5.93;38190
2400;23;30;36;Sud;2;Evasol;2770;46.31;5.16;1340
1860;16;30;;5;;SWEETAIR ENERGIE;0;45.36;6.04;38830
2925;21;20;;70;-1;123 Solaire;2913;46.00;4.72;69400
2590;18;30;36;-30;2;Watt Home;2988;45.25;5.65;38120
3000;24;25;36;50;-2;ASOLTEC;3224;45.14;5.79;38320
2970;23;30;37;-5;-2;ets chataing;3387;46.08;3.98;42640
2640;15;30;;-20;;MADISUN;0;45.43;5.96;38660
2960;20;15;;-15;;"Watt &amp; Home";0;45.18;5.74;38100
2940;23;25;37;20;-10;a2 energie;3227;45.26;5.85;38190
2840;20;20;37;35;-1;ALVENA;3203;45.71;4.74;69630
2520;15;20;;10;-1;ERDS;2863;45.67;4.70;69510
2940;19;20;;-5;-5;*****;3626;45.40;4.66;42520
2800;21;20;37;55;-4;PHOTON TECHNOLOGIES;2902;45.23;5.82;38330
2940;24;20;36;85;-1;ARTIS EN SOLAIRE;2875;45.52;4.63;42800
3000;25;20;;-90;;LES TECHNICIENS DU SOLAIRE;0;45.57;4.70;69700
2940;23;25;;65;;PhotoCapt;0;45.86;4.91;1700
2940;24;20;35;30;-2;ARTIS EN SOLAIRE;3048;45.41;4.37;42100
2800;21;20;37;20;-2;BS AUTOMATION;3126;45.64;4.25;42210
2970;27;25;35;30;-3;"Soleil en T&ecirc;te";3367;45.25;5.24;38940
2940;18;25;;45;;Eco Alternatives;0;45.76;5.02;69330
2940;17;20;37;-10;0;"SES Solaire Energies Syst&egrave;mes";3450;45.51;4.84;69560
2940;20;20;37;-70;0;"SES Solaire Energies Syst&egrave;mes";3036;46.10;4.77;1090
3000;16;15;37;Sud;-1;a2 energie;3563;45.42;4.98;38122
3000;23;30;36;-90;3;Solar Electric;2928;45.49;4.87;38121
2940;21;15;;-35;0;SOLAIRE PRO;3207;45.58;4.79;38670
2100;16;35;37;20;0;Evasol;2457;45.96;4.78;1600
2940;23;30;36;5;-6;SPER;3315;45.67;3.90;42990
2520;20;30;36;Sud;2;BCH ENERGIE;2976;45.88;5.34;1150
2720;20;60;;-45;;SOLAIRO;0;45.85;5.58;1510
2940;20;30;36;20;0;"SES Solaire Energies Syst&egrave;mes";3425;45.69;5.43;38510
2800;20;15;;-95;-2;Pi energies;2854;45.26;5.85;38190
0;23;30;;-35;;OPTI ENERGIE;0;45.39;4.77;38550
2940;23;35;36;-15;-2;ERDS;3429;45.60;4.68;69440
2940;21;10;;-45;-1;ailatech;3109;45.42;5.43;38690
2400;20;35;;-10;;BCH ENERGIE;0;45.64;4.72;69440
3000;20;20;;-50;-1;ARTIS EN SOLAIRE;3495;45.89;5.17;1800
2880;20;20;36;-50;2;PCIM PV SOLUTIONS;3130;45.86;5.31;1150
2100;16;30;36;60;0;Evasol;2283;45.66;4.89;69960
2940;18;25;37;5;1;"SES Solaire Energies Syst&egrave;mes";3487;45.80;5.03;1120
2940;21;20;36;70;-1;PCIM PV SOLUTIONS;2986;45.49;4.28;42170
2996;23;10;36;-75;-1;ets Henri GRANGE;2952;46.01;4.10;42120
720;22;30;;-20;;s*****;0;45.74;4.69;69290
2625;19;20;37;-80;-9;Pi energies;2618;45.27;5.85;38190
3040;24;30;37;Sud;1;SADEJA SOLAIRE;3652;45.78;4.99;69330
2040;15;20;36;40;0;geoclim loire;2212;45.79;4.34;42360
2940;18;20;37;-20;2;123 Solaire;3402;45.74;4.97;69680
2940;18;20;37;-20;0;SOLAIRE PRO;3516;45.36;4.82;38150
2960;23;25;;20;-1;"Ka&iuml;latech";3345;45.59;5.29;38300
3000;16;30;36;45;-1;a2 energie;3323;45.11;5.73;38800
3000;16;25;;-65;;a2 energie;0;45.58;4.96;38200
2940;21;20;;10;-1;Air et Chaleur d aujourd hui;3319;45.74;4.02;42130
3010;24;20;;-20;-1;ARTIS EN SOLAIRE;3196;45.53;4.61;42800
2568;17;30;37;-45;-1;SOLANE;2879;45.54;4.67;69420
3000;24;25;36;15;1;Pi energies;3478;45.59;5.38;38300
2940;18;20;;-10;;MS SOLAIRE;0;46.15;4.10;42190
1850;13;20;;-15;0;"Ka&iuml;latech";2049;45.50;5.29;38300
2880;20;25;;45;;x;0;45.56;4.11;42610
0;24;60;;Sud;;AUCUN;0;45.75;4.90;69100
2970;25;30;;-45;-7;confidentiel;3380;45.25;5.82;38330
2940;19;25;33;-75;1;AQTB;2729;45.22;5.90;38190
2880;20;20;33;-80;-1;AIR SOLAIRE;2718;45.39;4.36;42150
2940;19;30;;20;;ENERCOS technologies;0;45.28;5.93;38190
2560;10;30;;45;;VERDEN;0;45.93;4.36;69170
2970;24;20;36;15;0;"Soleil en T&ecirc;te";3306;46.30;4.83;1750
2940;18;30;;-30;0;A l Eau Solaire;3279;45.64;5.19;38290
2968;23;30;36;Sud;0;ENERCOS technologies;3402;45.52;5.68;38480
2970;23;20;36;-80;-2;ARTIS EN SOLAIRE;2963;45.54;4.60;42800
2520;15;30;36;-90;-5;123 Solaire;2406;46.20;5.92;1630
3000;24;20;36;-175;-5;Fe Solar;2372;45.23;5.33;38470
2940;23;25;38;-45;-11;a2 energie;3201;45.28;5.88;38920
3000;22;20;37;Sud;-1;Tertiel villefranche;3394;45.98;4.53;69620
1920;18;35;37;-25;-4;AMITEL CLIM;2197;45.23;5.81;38330
2940;19;10;;-35;-1;SUNSET ENERGY;3236;45.61;5.33;38300
2940;18;20;36;-50;2;A l Eau Solaire;3198;45.64;5.19;38290
2940;18;20;36;85;-2;ARTIS EN SOLAIRE;2751;45.45;4.36;42000
2996;24;15;36;-90;-7;Evasol;3007;45.64;4.81;69390
2880;24;30;;Sud;-1;INTI PRO CONCEPT;3281;45.78;5.04;69330
3010;19;25;;-30;;SOLAIRE PRO;0;45.66;5.11;38070
2940;24;20;;75;;ARTIS EN SOLAIRE;0;45.53;4.61;42800
1600;12;30;36;-40;1;AQTB;1791;45.29;5.63;38340
2940;24;20;;-5;-1;http://www.solaire-energies.com;3567;45.56;5.43;38110
2940;25;20;35;10;-9;BS AUTOMATION;3215;45.74;3.92;42990
2990;21;20;37;10;-1;a2 energie;3388;45.85;4.68;69380
2970;23;30;37;Sud;3;Charpentiers de Chartreuse;3630;45.22;5.70;38950
2940;18;20;37;-10;1;123 Solaire;3433;45.92;4.95;1390
2960;27;25;36;-45;1;VMA ENVIRONNEMENT;3338;45.58;5.05;38790
2996;18;20;37;60;1;123 Solaire;3238;45.91;4.84;1600
2970;25;25;;-20;0;A l Eau Solaire;3337;45.46;5.31;38690
3000;25;20;36;45;2;INTI PRO CONCEPT;3343;45.91;5.19;1800
2700;20;30;37;-30;-3;Bio Sol Air Energie;3170;45.25;5.84;38330
2530;18;30;;75;;DELTASUD;0;45.97;4.82;1600
2940;18;20;;5;-12;a2 energie;3223;45.29;5.89;38920
1980;17;20;36;15;0;solaris energie solaire;2301;45.66;4.94;69780
2100;16;25;36;Sud;1;Energia;2442;45.55;5.45;38110
2925;22;30;37;-40;-3;ENERCOS technologies;3368;45.25;5.83;38330
2925;21;20;36;-10;1;LEPARGNEUR;3406;45.64;5.01;69780
2720;22;20;36;60;-1;Soleil Plus Energies Renouvelables;2834;45.51;4.60;42800
2960;21;20;36;35;3;SERPOLET BIDAUD;3429;45.47;5.06;38440
2940;21;25;;90;;PhotoCapt;0;45.87;4.70;69380
3000;24;30;35;-75;-9;http://www.asoltec.fr/;3111;45.06;5.67;38450
3000;29;40;;Sud;;NOVASOL;0;45.19;5.88;38420
2940;24;20;;30;-1;EKOTER;3200;45.17;5.36;38470
3000;24;30;;-35;-1;"Eco'logista - Soleil en t&ecirc;te";3397;45.74;5.73;1300
2940;21;25;;-25;-5;ALDER;3611;45.40;4.68;42410
2960;23;30;36;-60;0;R. LEPARGNEUR;3176;45.61;5.49;38110
2940;20;40;37;5;0;ATESOL;3494;45.68;4.75;69530
2990;20;20;36;-90;2;"Soleil en T&ecirc;te";2929;45.58;5.36;38300
2940;24;30;;Sud;0;VMA ENVIRONNEMENT;3436;45.29;5.24;38980
2940;18;20;36;20;0;ARTIS EN SOLAIRE;3430;45.51;4.90;38200
2990;21;20;37;-55;0;a2 energie;3219;45.99;4.77;1480
2800;21;25;36;-70;0;EDF ENR;2913;45.65;5.27;38460
23940;160;15;;20;0;JLS;25275;45.07;5.27;38680
1926;11;30;36;15;2;Solaire Le Vent;2202;45.52;4.37;42570
2940;20;15;36;-45;2;"SES Solaire Energies Syst&egrave;mes";3125;46.19;5.19;1000
2940;17;20;37;-20;-1;LEPARGNEUR;3361;45.75;4.74;69160
2200;20;25;;-60;;PLANETERE;0;45.74;4.22;42110
2760;20;20;37;-25;1;123 Solaire;3171;45.88;4.86;69250
3000;24;45;36;5;-16;SOL R ELEC;3467;45.10;5.66;38640
2100;17;25;;Sud;;SWEETAIR ENERGIE;0;45.27;5.89;38920
2880;23;40;36;-45;-1;Energia;3198;45.61;4.78;69390
3000;16;20;36;35;-5;a2 energie;3222;45.75;4.42;69930
2880;22;35;37;-40;-1;La maison du Confort Electrique - Henri;3275;45.77;4.70;69280
2960;20;20;36;Sud;2;CHENNEVIER TOITURE;3410;45.61;5.26;38300
2940;18;20;;40;;A l Eau Solaire;0;45.14;5.29;38160
5160;38;20;37;40;-2;FL Energie;5546;45.55;4.59;42800
2000;20;45;;Sud;;AMITEL CLIM;0;45.40;5.48;38140
2100;16;25;;90;;PHOTON TECHNOLOGIES;0;45.69;4.98;69800
2996;18;20;36;Sud;4;R. LEPARGNEUR;3419;45.56;4.71;69700
2996;25;25;36;30;1;LOGISUN;3370;45.80;4.62;69210
2800;21;20;36;45;-1;Hydelec Solar;3013;45.14;5.35;38160
2996;18;20;36;-70;-4;A l Eau Solaire;3071;46.09;4.64;69460
2940;23;20;;45;;Eco Energie Systemes;0;45.87;4.56;69490
2940;18;25;36;Sud;-1;Dimension Energie;3318;45.49;4.26;42170
2940;20;25;;-75;;"SES Solaire Energies Syst&egrave;mes";0;45.33;5.60;38500
2960;20;45;36;Sud;-14;Power Me;3267;45.27;5.44;38210
2880;24;20;37;60;1;"Solha&amp;iuml;c";3143;45.70;5.05;69720
3000;17;35;32;15;3;a2 energie;2853;45.39;6.08;38580
2970;23;25;;-10;;smartelec;0;45.42;5.97;38530
2880;21;30;;20;;AJF Solaire;0;45.08;5.67;38760
2996;18;20;;Sud;-1;A l Eau Solaire;3331;45.65;5.36;38890
2720;21;25;36;40;0;EDMI;2932;45.15;5.84;38410
2520;14;25;36;-45;1;A l Eau Solaire;2805;45.62;5.21;38080
768;20;30;;-50;;KOREAM;0;46.08;4.75;1090
2940;20;30;;-60;;"SES Solaire Energies Syst&egrave;mes";0;45.28;5.45;38210
2880;24;20;;Sud;;INTI PRO CONCEPT;0;45.83;5.21;1800
2940;23;30;36;Sud;0;CHENE CLIMATISATION;3524;45.55;5.00;38780
1680;15;30;;25;2;AQTB;2166;45.26;5.78;38700
2940;21;25;;-75;;"SES Solaire Energies Syst&egrave;mes";0;45.33;5.62;38500
2880;24;35;37;Sud;-3;solstice-concept;3381;45.55;4.11;42610
2520;25;25;;Sud;;123 Solaire;0;45.78;5.01;69330
2700;23;20;36;-20;2;solaris energie solaire;3143;45.52;5.04;38440
3010;18;20;37;20;0;123 Solaire;3441;45.63;4.79;69390
2880;24;20;;-70;-1;"Solha&iuml;c";2979;45.87;5.22;1800
2880;20;40;37;-45;0;airsolaire Brignais 69;3280;45.47;4.76;69420
2940;17;20;;-20;;LEPARGNEUR;0;45.87;5.14;1800
2996;18;25;;-60;-1;FL Energie;3260;45.54;4.59;42800
2960;21;35;;Sud;;L;0;45.43;6.03;38530
1900;18;20;37;15;0;123 Solaire;2192;45.75;4.78;69005
2520;20;30;;Sud;;VMA ENVIRONNEMENT;0;45.49;5.14;38440
2990;23;20;;35;;solaris energie solaire;0;45.97;4.33;69550
2940;23;15;;Sud;;123 SOLEIL;0;45.46;4.84;38121
2960;20;20;;-65;;"Ka&iuml;latech";0;45.35;5.93;38660
3000;22;35;;-20;-1;lumensol;3719;45.52;5.45;38110
2996;23;20;36;-40;-3;ARTIS EN SOLAIRE;3150;45.53;4.57;42800
2996;20;15;;Sud;;Energissimo;0;45.61;4.87;69360
3852;18;20;;-45;;solution soleil energie;0;46.25;5.58;1580
2700;20;30;36;-45;0;A l Eau Solaire;3042;45.63;4.80;69390
2960;20;25;;30;-1;Sunvoltaique;3361;45.64;5.55;38630
2960;22;60;;45;;LEPARGNEUR;0;45.49;4.35;42580
1400;8;30;;90;;IDEOSUN;0;45.32;5.56;38430
2940;17;20;35;80;1;NeOL;2802;45.14;5.84;38410
2996;18;20;37;45;0;"SES Solaire Energies Syst&egrave;mes";3301;45.99;4.76;1480
3000;25;20;36;Sud;-1;solaireco lyon 69007;3505;45.58;4.89;38200
3000;23;35;36;-45;-2;Au Soleil De France;3340;45.67;4.56;69850
2640;20;20;;75;;IDESKO;0;45.84;4.86;69270
17500;150;15;;-10;;MDA ENERGIE NOUVELLE;0;45.61;4.05;42600
2100;16;25;;Sud;;Electro Energie Diffusion;0;45.85;4.64;69380
2996;18;30;;10;-11;A l Eau Solaire;3848;44.91;5.64;38650
1980;17;5;;35;;Evasol;0;45.68;5.04;69720
2720;21;10;37;-45;1;LOGISUN;2936;45.82;5.05;1120
1926;12;20;37;Sud;0;123 Solaire;2231;45.69;4.81;69310
2940;23;25;37;-85;-8;a2 energie;2864;45.27;5.87;38920
3000;21;30;;90;;ENERGINEO;0;45.77;5.00;69330
1440;10;30;36;15;-8;INTINOVA;1610;45.84;4.50;69490
3220;24;20;35;30;-7;ARTIS EN SOLAIRE;3310;45.49;4.43;42290
2940;20;45;36;-5;0;"SES Solaire Energies Syst&amp;egrave;mes";3465;45.63;5.13;38070
2100;16;30;36;40;-2;EKOTER;2334;45.14;5.32;38160
2996;24;25;36;30;1;A l Eau Solaire;3460;45.73;5.15;38230
2800;21;20;;120;;ELIOMAX;0;45.80;5.36;38390
2880;21;20;36;Sud;0;SOLAR TOTAL;3240;46.26;4.85;1290
3000;16;20;37;40;1;"Solar D&eacute;veloppement";3370;45.90;4.83;1600
2940;23;25;36;70;1;ENERCOS technologies;3144;45.58;4.91;38200
3000;20;20;36;-45;2;DELTASUD;3292;45.94;5.32;1500
2940;22;25;;-10;;a2 energie;0;46.15;4.08;42720
3080;19;20;38;30;-20;ENERCOS technologies;3139;45.38;5.95;38660
2775;20;15;;15;;A L nrj sol air;0;45.49;4.89;38200
2940;23;20;;-55;;a2 energie;0;46.05;4.76;1480
3000;22;20;36;10;-2;ENERCOS technologies;3359;45.54;4.60;42800
3000;22;20;;70;;ENERCOS technologies;0;45.33;4.81;38150
2400;18;20;;Sud;;ENERCOS technologies;0;45.36;5.14;38260
3000;22;10;;Sud;;ENERCOS technologies;0;45.42;4.88;38150
2940;23;20;;35;;ENERCOS technologies;0;45.55;4.84;38200
2940;23;20;;Sud;1;ENERCOS technologies;3223;45.62;5.32;38300
2960;24;20;;85;;LEPARGNEUR;0;45.80;4.63;69210
3000;22;20;;70;;CPAE;0;45.44;5.41;38690
2960;20;30;;Sud;;SOLAR ELEC;0;45.21;5.76;38700
3000;25;15;;Sud;0;ARTIS EN SOLAIRE;3205;45.54;4.61;42800
2760;16;40;;-20;-1;"SES Solaire Energies Syst&egrave;mes";3117;45.57;5.44;38110
3000;17;35;;-30;;a2 energie;0;45.80;4.74;69570
2960;21;35;36;-65;4;ENODOM;3028;45.75;5.27;38460
3000;22;25;;70;;ENERCOS technologies;0;45.50;5.16;38440
2940;23;20;;25;;ENERCOS technologies;0;45.63;5.36;38890
2100;15;30;36;20;-1;EDF ENR;2437;45.71;5.34;38460
3000;25;35;35;-45;-2;eco systeme ( depot bilan );3294;45.55;5.35;38300
2940;21;25;;80;;"Solar D&eacute;veloppement";0;45.91;4.83;1600
3000;24;30;36;45;0;Solutions Soleil Energie;3334;45.55;5.53;38490
2996;18;20;37;Sud;2;"SES Solaire Energies Syst&egrave;mes";3465;45.91;5.18;1800
2940;20;15;;-50;;PCIM PV SOLUTIONS;0;45.53;4.92;38780
2720;20;35;36;-45;-7;VMA ENVIRONNEMENT;3010;45.48;5.56;38850
3000;25;40;37;-45;-2;Altibois / Naturelec;3268;46.24;5.99;1710
3000;20;30;37;Sud;-1;Avenir Elec;3544;45.67;4.68;69510
35000;290;15;;40;-1;CPAE;39780;45.36;5.49;38140
2992;22;20;;60;-1;REFLEX SOLAIRE;3204;45.58;4.80;38670
2870;21;30;;Sud;-5;ENERCOS technologies;3792;45.17;5.69;38180
2220;15;30;;Sud;;TENDANCES ECO HABITAT;0;46.05;5.15;1320
2800;20;20;;Sud;;"solaire energies syst&amp;amp;amp;amp;am";0;45.58;5.41;38110
2940;20;30;37;20;-7;LEPARGNEUR;3361;46.10;5.77;1200
3000;20;20;37;50;-2;DELTASUD;3193;46.14;4.64;69430
2568;16;30;36;10;1;A l Eau Solaire;3013;45.58;5.38;38300
2940;25;25;36;-5;0;123 Solaire;3404;46.10;4.81;1090
2430;18;40;;-20;;7 ENERGIES;0;45.94;5.31;1500
3000;25;25;;Sud;0;CPAE;3532;45.40;5.46;38140
2940;18;15;37;-10;-1;123 Solaire;3290;45.96;4.77;1600
3200;21;25;;85;;Energia;0;45.90;5.64;1260
2800;23;25;36;90;2;IDEOM;2768;45.59;4.84;69360
2800;24;30;;45;;SWEETAIR ENERGIE;0;45.46;5.98;38530
2940;23;20;37;60;0;123 Solaire;3189;45.79;4.92;69120
2940;18;30;36;-20;10;A l Eau Solaire;3332;45.85;5.44;1150
2996;18;20;36;-30;-3;THERMO CONCEPT FOREZIEN;3306;45.54;4.48;42320
3200;23;30;;Sud;;Sarl ARGOUD;0;45.49;4.76;69420
2820;20;35;36;45;2;a2 energie;3150;45.64;5.30;38300
3000;22;20;;70;;ENERCOS technologies;0;45.60;4.83;69360
2220;25;15;36;70;2;Suryana;2319;45.73;4.73;69340
2970;24;20;36;35;0;S comme solaire;3340;45.60;5.21;38080
2940;18;35;38;-45;-12;a2 energie;3230;45.31;5.91;38660
3040;22;20;;-20;-9;LOGISUN;3355;45.85;5.12;1360
2940;23;25;;30;-1;ENERCOS technologies;3415;45.51;5.13;38440
3000;22;20;36;100;1;ENERCOS technologies;2941;45.62;5.07;38540
2760;17;5;;Sud;;S comme solaire;0;45.58;5.05;38790
2820;20;25;;-30;1;A2Energy;3190;45.21;5.80;38240
7140;51;25;36;20;1;solaris energie solaire;8273;45.61;5.33;38300
2996;24;25;37;Sud;1;123 Solaire;3546;45.75;4.93;69120
2760;20;25;35;-60;-6;Thermi Service;2791;46.10;3.83;42310
2990;21;20;;-45;;SOLAIRE PRO;0;45.41;4.79;38550
2996;23;25;37;20;-15;a2 energie;3214;45.37;5.95;38660
2990;22;30;36;-20;-3;Solaire Le Vent;3261;45.46;4.35;42390
3000;22;25;;85;;ENERCOS technologies;0;45.51;4.95;38780
3000;22;20;;60;-1;ENERCOS technologies;3409;45.63;5.07;38540
3000;22;20;;10;;ENERCOS technologies;0;45.77;5.17;38230
2960;21;20;37;Sud;-1;tendance eco;3341;45.67;4.29;42210
3000;20;20;;10;-1;SADEJA SOLAIRE;3345;45.89;4.93;1390
2880;29;35;37;-90;1;http://www.solaireco.fr/;2742;45.72;5.00;69740
5400;23;20;;Sud;0;moulin;6373;45.52;4.36;42570
3000;25;30;;25;31;CPAE-38140 -Apprieu;2842;45.32;5.69;38340
2992;23;20;36;-90;-2;SPER;2877;45.70;4.30;42110
2960;20;35;;90;;AWE Climatisation;0;46.23;4.83;1290
3000;25;25;;-70;;Travo d Avenir;0;45.83;4.62;69210
2400;17;20;37;-35;0;Amisoler;2715;45.73;4.85;69008
2940;17;20;;-10;;"SES Solaire Energies Syst&egrave;mes";0;45.61;5.22;38080
2520;19;35;;65;;Amisoler;0;45.34;5.05;38270
3000;20;25;35;100;-1;DELTASUD;2591;45.45;4.50;42400
2996;18;20;37;-45;0;123 Solaire;3412;45.46;4.82;38121
3010;23;20;36;30;30;S comme solaire;3082;45.85;5.46;1470
2520;18;15;34;85;1;Electro Loire Energie;2374;45.39;4.36;42150
3000;20;20;37;-10;-1;DELTASUD;3450;45.65;4.77;69390
2996;18;20;;-60;0;A l Eau Solaire;3332;45.69;5.21;38460
2996;19;20;;-10;;A l Eau Solaire;0;45.60;5.22;38080
2880;28;35;;45;;GIRASOLE;0;45.87;4.70;69380
2160;16;20;;-40;;Electro Energie Diffusion;0;45.85;4.63;69380
2996;19;20;37;Sud;-1;A l Eau Solaire;3309;46.06;4.06;42300
2850;23;20;;60;-1;ACFER;3216;45.85;5.22;1150
3010;30;25;36;15;-5;"SES Solaire Energies Syst&egrave;mes";3336;45.38;5.62;38960
2100;16;30;35;-45;0;Evasol;2173;45.46;4.44;42650
2880;20;35;36;45;2;JEPAC 01 - Terre d'avenir;3229;45.81;5.28;1150
170;20;0;;-180;;fox;0;45.36;5.57;38500
2880;21;20;;25;;SOLAR TOTAL;0;45.77;4.43;69770
2996;23;15;37;-40;-9;AQTB;3389;45.16;5.68;38170
2990;21;20;37;45;2;DELTASUD;3347;45.90;5.16;1800
3000;16;30;;-5;0;a2 energie;3628;45.11;5.75;38560
2940;21;25;36;-10;-2;"Solaire Energie Syst&amp;amp;egrave;mes";3305;45.37;5.62;38960
5400;41;30;37;-45;2;soleil.energie.sarl;5950;45.76;5.77;1300
2960;21;30;35;5;-5;ECOMOTIVE;3476;45.55;4.80;69700
2520;28;20;37;-50;1;EMBIO SUN;2787;45.79;5.04;69330
3000;25;35;;65;;"Soleil en T&ecirc;te";0;46.26;5.36;1370
2880;20;35;37;-85;-9;a2 energie;2749;45.26;5.86;38190
2100;20;25;37;20;-3;SWEETAIR ENERGIE;2387;45.30;5.49;38210
2250;17;30;36;Sud;-2;Evasol;2591;45.55;4.28;42340
2800;22;20;35;20;0;Evasol;3034;45.40;4.26;42240
2996;18;20;;80;;123 Solaire;0;45.92;4.71;69480
2400;24;30;;15;;NOVASOL;0;45.08;5.69;38760
2996;18;35;37;-75;1;PHOTON ENERGIE;3039;45.74;5.14;38230
3000;23;25;;-5;1;IPC;3367;45.95;5.32;1500
3000;18;30;36;-20;-2;a2 energie;3345;45.25;5.89;38190
2400;22;30;37;-5;-1;Evasol;2843;45.78;4.73;69260
2960;21;25;33;80;-3;NVL Energie;2880;45.46;4.65;42410
3010;24;20;37;-30;-1;"abc &eacute;nergie solaire";3365;45.85;4.67;69380
2960;20;30;;30;;sep;0;45.38;4.77;38550
3000;23;25;36;Sud;1;CPAE;3563;45.61;5.09;38090
2996;17;25;36;-45;-3;sol air confort;3131;45.45;4.36;42000
2940;23;20;37;90;1;ENERCOS technologies;2955;45.76;4.96;69150
2996;18;20;37;-15;-1;TOUT EN SOLEIL;3428;45.81;4.72;69890
2940;20;30;36;Sud;1;"solaire &amp;amp;eacute;nergies syst&amp";3454;45.59;5.39;38300
2940;24;30;35;5;-2;solaire enregies systeme;3432;45.59;5.37;38300
2960;22;25;;-90;;LEPARGNEUR;0;45.33;4.39;42660
2760;21;15;34;Sud;3;"Soleil en T&ecirc;te";3076;45.58;5.26;38300
2720;21;25;37;-50;-1;GIORDANO;3029;45.22;5.79;38330
3000;16;25;36;40;-1;a2 energie;3282;45.79;4.33;42360
2450;23;20;37;-10;0;123 Solaire;2844;45.75;4.91;69100
3000;16;35;37;35;-2;Planete Plus;3440;46.32;6.07;1170
2800;20;25;36;Sud;1;VERDEN;3300;45.63;5.10;38070
2760;21;20;;80;;solelux toiture;0;45.99;5.16;1320
2520;19;5;;5;;fauche centre est;0;45.52;4.21;42160
2220;17;30;;-45;-2;R CONFORT;2543;45.32;5.93;38660
3000;25;25;;Sud;0;CPAE;3526;45.39;5.50;38140
3000;22;20;37;-5;-2;SRCT Systemes Solaires;3450;45.39;5.43;38690
1980;15;30;;40;0;Pi energies;2169;45.35;5.52;38140
2996;23;20;37;30;-15;a2 energie;3131;45.29;5.89;38920
3150;18;25;36;45;0;a2 energie;3290;45.35;5.65;38134
2996;23;20;37;-75;-15;a2 energie;3026;45.29;5.89;38920
2380;8;45;37;Sud;-1;toto;2822;45.77;4.70;69280
2996;18;20;;-10;1;A l Eau Solaire;3347;45.69;5.16;38460
2925;16;25;37;-50;-10;a2 energie;3135;45.26;5.86;38190
2940;18;35;37;-25;-3;A2Energie 01480 Jassans Riottier;3452;45.41;5.53;38850
2940;23;20;;-60;-1;SOL ENERGY;3107;45.68;5.07;69720
2100;24;45;;Sud;;Solar Electric;0;45.36;5.66;38960
2750;25;20;36;60;-5;gelhak energy;2778;46.01;3.93;42370
2940;23;35;;-15;0;CPAE;3313;45.42;5.44;38690
3000;25;25;36;40;-1;ZPCV.ZANONE;3271;45.20;5.83;38420
2700;15;25;;-45;;a2 energie;0;45.32;5.56;38430
11600;87;35;;Sud;;CPAE;0;45.34;5.42;38140
2960;21;30;35;-45;0;MDA ENERGIE NOUVELLE;3119;45.43;4.32;42230
2996;23;20;;95;;a2 energie;0;46.09;4.79;1090
3000;21;25;;Sud;;CPAE;0;45.38;5.41;38690
3000;24;45;37;90;-15;BIO L EAU FRANCE;2396;45.20;5.67;38360
1980;14;35;37;55;1;"Soleil en T&amp;ecirc;te";2165;46.25;6.09;1280
2970;25;30;36;Sud;-1;"Soleil en T&ecirc;te";3466;45.32;5.26;38870
2940;23;20;37;45;0;123 Solaire;3252;45.65;4.79;69390
4140;20;30;;45;;Solaire Direct;0;46.16;4.30;42670
2970;23;25;;70;;WATT et HOME;0;45.22;5.34;38470
2960;21;20;;50;-1;ENODOM;3191;45.68;5.04;69720
3000;24;20;36;-10;0;IDESKO;3350;46.30;4.87;1750
2568;20;20;36;20;1;S comme solaire;2942;45.60;5.21;38080
3000;23;25;36;-50;0;S comme solaire;3301;45.32;5.30;38870
2300;14;30;36;-35;-2;123 Solaire;2640;45.68;4.82;69540
3000;28;20;36;-30;2;"Soleil en T&ecirc;te";3326;46.11;5.26;1160
2970;27;30;36;-45;2;IMERYS TOITURES;3221;46.20;5.23;1000
2880;24;30;37;30;2;ABD;3374;45.34;5.61;38500
3080;30;30;;-30;;LEPARGNEUR;0;46.13;5.53;1430
2380;18;30;36;90;1;tempeos;2327;45.66;4.95;69780
3000;22;30;36;-10;0;flash service;3267;45.43;5.77;38380
3000;23;40;;-25;;SADEJA SOLAIRE;0;46.17;5.28;1250
2996;18;20;37;-40;-1;FL Energie;3339;45.68;4.70;69510
2925;22;20;36;10;-1;"Ka&amp;iuml;latech";3265;45.20;5.82;38420
2960;21;15;37;75;0;R. LEPARGNEUR;3081;45.82;4.76;69570
2960;23;25;;10;7;LEPARGNEUR;3505;45.11;5.81;38410
2960;21;25;;60;;Soleil Plus Energies Renouvelables;0;45.94;4.76;1600
1926;15;25;;15;;A2Energy;0;46.05;5.13;1320
2940;23;30;34;15;7;Pienergies Savoie;3174;45.13;5.84;38410
2940;20;30;;Sud;;EYMARD Champ/drac;0;45.17;5.69;38170
2940;23;25;38;-25;-16;A2E Energie;3295;45.31;5.92;38660
0;16;30;;-45;;SOLELUX TOITURE;0;46.34;4.88;1570
900;6;25;37;Sud;1;SRS ELEC;1065;45.76;4.93;69150
2960;21;20;36;-15;-2;watt home;3255;45.35;5.60;38500
2996;18;20;36;10;1;EPB Solaire;3521;45.58;4.98;38540
2940;22;30;36;60;5;"AA Electricite; Batiment";3203;45.22;5.68;38120
2800;20;20;37;90;1;non recommande;2795;45.78;4.93;69120
3000;24;30;37;Sud;-1;INTI PRO CONCEPT;3519;45.97;4.71;69400
3000;25;20;;-90;;"Solha&iuml;c";0;45.99;4.71;69400
2996;18;25;34;-45;-2;FL Energie;3058;45.43;4.36;42530
2940;22;30;36;10;1;PCIM PV SOLUTIONS;3491;45.74;5.16;38230
2940;20;20;;55;-1;ALDER;3183;45.45;4.86;38138
2960;22;25;36;Sud;1;"Ka&iuml;latech";3465;45.56;5.26;38300
2520;17;20;;-75;-1;ENERGIC ENR;2551;45.80;4.85;69300
3000;24;20;;-30;;ASOLTEC;0;45.25;5.89;38190
2960;20;30;;90;;CHENEVIER TOITURE;0;45.40;4.76;38550
2990;18;35;37;Sud;1;LEPARGNEUR;3610;45.76;4.96;69150
2960;26;25;;35;0;123 Solaire;3355;45.63;4.45;69590
3010;21;30;37;30;1;SOLAIRE PRO;3540;45.72;4.99;69740
2880;17;25;;25;-2;A l Eau Solaire;3230;45.63;5.36;38890
2880;21;20;35;50;2;SUBSUN;2876;45.47;4.59;42740
2940;18;15;36;Sud;-6;TFB ENERGIES SOLAIRES;3178;46.15;3.86;42310
2996;23;20;36;Sud;0;a2energie;3448;45.90;5.19;1800
2960;21;25;;-15;;GENELEC MORIN;0;45.97;4.53;69620
2880;24;35;35;20;-9;Expert Solaire;3174;45.15;5.59;38250
2730;21;20;;60;;SOL R ELEC;0;45.12;5.78;38320
3010;24;20;;85;;ARTIS EN SOLAIRE;0;45.63;4.93;69970
3000;17;20;;-70;;ENERGIC ENR;0;45.82;4.89;69140
2400;21;20;36;-5;-5;ELECTRICITE SERVICE;2716;45.63;4.63;69440
2760;19;20;;-75;-1;EPB Solaire;3099;45.50;4.96;38780
3000;16;25;37;-90;-4;ENERGIC ENR;2860;45.32;5.52;38210
2960;20;20;34;-75;7;WATT et HOME;2848;45.25;5.70;38950
2940;20;20;36;90;0;France Eco Energies Nouvelles;2887;45.73;4.74;69340
2120;15;30;;15;0;LEPARGNEUR;2219;45.38;4.28;42700
2960;20;20;37;Sud;1;SOLAR TOTAL;3455;45.73;4.90;69500
2960;22;20;36;90;-4;Electro Energie Diffusion;2834;45.87;4.64;69380
2996;18;20;37;Sud;0;A l Eau Solaire;3495;45.67;4.95;69780
2970;22;20;36;10;2;Solutions Soleil Energie;3344;46.18;5.23;1000
2850;22;25;;90;;AC SOLAIRE;0;45.34;5.30;38590
2720;21;45;32;-90;-3;GMV Industrie;2382;44.83;5.80;38710
2940;20;20;;-25;-2;Solaire Direct;3351;45.47;4.38;42270
3000;23;30;35;45;0;ARCENSOL;3277;45.83;4.63;69210
3000;22;20;;5;-4;France Eco Energies Nouvelles;3438;45.60;5.16;38090
2940;20;20;37;-40;0;france-eco-energie;3261;45.97;4.76;1480
3010;23;5;;30;0;ARTIS EN SOLAIRE;2999;45.50;4.44;42290
2940;21;20;;Sud;;Vent solaire application;0;45.65;4.98;69780
2940;23;20;36;20;2;VMA ENVIRONNEMENT;3428;45.48;5.25;38440
2565;18;25;32;-10;3;a2 energie;2689;45.27;6.10;38580
2996;18;30;;-30;;Pi energies;0;45.47;5.54;38850
2940;23;20;;-20;;EOR;0;45.08;5.21;38840
2940;24;25;;45;7;123 Solaire;3166;45.81;4.85;69300
2940;23;25;36;30;3;NOVASOL;3372;45.67;5.21;38460
2996;18;20;36;25;-7;123 Solaire;3273;46.14;4.60;69430
2960;22;30;36;-65;0;Solutions Soleil Energie;2965;46.15;4.17;42190
3000;24;25;37;30;-3;http://www.asoltec.fr/;3322;45.22;5.81;38330
2880;21;35;36;-50;-2;SUBSUN;3188;45.73;4.75;69340
2220;16;30;36;-5;-1;ENR Belantin;2642;45.64;4.80;69390
3000;20;15;37;5;2;ACFER;3407;45.90;5.16;1800
2940;18;30;36;25;2;ERAO;3321;46.44;5.23;1560
2880;20;30;36;20;0;jepac01;3272;45.65;4.34;42140
2990;22;20;37;-15;-1;DELTASUD;3394;45.61;4.68;69440
2400;14;25;37;-10;-1;CPAE;2824;45.40;5.40;38690
2960;21;30;;Sud;-1;ECOMOTIV;3576;45.36;5.08;38270
3000;23;15;36;-10;-3;ATSUN;3422;45.60;4.91;38200
3000;20;25;;5;;ENERGINEO;0;45.60;4.69;69440
2996;17;25;35;-40;-12;MADISUN;3029;45.40;6.07;38580
2940;17;25;35;-25;16;"SES Solaire Energies Syst&egrave;mes";3197;45.85;5.33;38390
3000;28;35;35;Sud;-11;ADB;3268;45.14;5.59;38250
3040;25;35;37;100;-8;Enerys;2507;46.21;5.52;1460
2880;22;25;;90;;SIPN SOLAIRE;0;45.68;5.18;38460
2940;28;40;37;-5;-15;LEPARGNEUR;3333;46.04;5.75;1200
2996;25;35;;-100;;NOVASOL;0;45.24;5.63;38360
3150;22;20;36;Sud;-2;ENERCOS technologies;3396;45.50;4.57;42420
3000;23;20;;Sud;;7 ENERGIES;0;46.15;5.31;1250
2960;23;20;36;30;-2;ACA;3253;45.55;4.25;42340
2970;30;20;36;40;2;A l Eau Solaire;3317;45.63;5.20;38290
2996;23;30;;-10;-1;ENERCOS technologies;3340;45.78;4.25;42110
2940;21;30;36;-10;-2;Evasol;3365;45.40;4.21;42240
2940;18;65;;45;;a2energy;0;46.04;5.40;1640
2940;23;20;36;75;3;CALEA Energies Renouvelables;3051;45.71;5.22;38460
2880;20;25;36;90;-1;ets Henri GRANGE;2700;46.04;4.16;42120
2880;30;20;;45;;SIPN SOLAIRE;0;45.62;5.18;38090
2800;5;15;;155;;NC;0;45.77;4.78;69130
2000;15;25;36;60;1;solaris energie solaire;2120;45.96;5.36;1500
2960;22;20;37;50;1;Solutions Soleil Energie;3299;45.74;4.96;69680
2100;16;30;35;-50;2;Energia - EcoLogique;2195;45.20;5.83;38420
2880;20;20;36;Sud;0;EODIS;3318;45.61;5.50;38110
2960;22;20;36;15;1;VMA ENVIRONNEMENT;3401;45.61;5.23;38080
2960;21;20;;30;-1;Alt energies;3446;45.50;4.30;42480
3010;23;40;36;40;-2;a2 energie;3425;45.26;5.34;38470
2800;21;30;37;-5;-4;EDF ENR Photon technologies;3251;45.58;4.07;42600
2800;17;20;;-15;;ecolo n Ergie;0;45.72;4.76;69630
2996;24;20;35;-40;-10;ARTIS EN SOLAIRE;3136;45.50;4.56;42320
3010;22;30;;60;;S comme solaire;0;45.25;5.84;38330
2996;18;20;37;-25;0;123 Solaire;3422;45.99;4.82;1480
2996;18;20;37;10;-4;123 Solaire;3499;45.41;4.68;42410
2800;20;20;;Sud;-1;France Eco Energies Nouvelles;3120;45.62;4.92;69970
2760;21;20;35;-10;0;Air et Chaleur d aujourd hui;3007;45.40;4.26;42240
2940;22;20;;40;;S comme solaire;0;46.08;4.48;69870
2880;21;30;;45;;XXX;0;45.54;4.82;69560
2960;20;40;37;40;-15;"WATT&amp;amp;HOME";2990;45.38;5.95;38660
3000;16;35;36;Sud;1;LEPARGNEUR;3549;46.09;4.85;1990
2996;21;20;36;80;-2;THERMO CONCEPT FOREZIEN;2957;45.53;4.22;42160
2961;25;20;;25;-4;biol eau;3356;45.59;5.23;38080
2880;21;20;;20;;AIR SOLAIRE;0;45.57;4.63;69440
11970;84;30;;15;;"r&eacute;v solaire";0;45.63;4.82;69360
3000;25;20;37;45;0;LEPARGNEUR;3307;45.97;4.76;1480
2940;23;20;36;-30;1;A l Eau Solaire;3334;45.65;5.16;38290
2996;16;20;;-75;-1;R. LEPARGNEUR;3071;45.68;5.01;69720
2940;21;20;37;25;0;123 Solaire;3380;45.73;4.89;69500
2960;21;20;37;60;0;ECOMOTIV;3252;45.50;4.80;69420
2960;21;35;37;40;0;PRO FIL ELEC;3483;45.44;4.78;38370
3000;23;25;34;-5;-1;SRCT Systemes Solaires;3511;45.53;5.16;38440
3125;25;45;;Sud;;energie renouvelable beaujolaise;0;46.04;4.65;69460
2880;27;25;37;45;-1;solaireco;3155;45.83;4.62;69210
2960;22;20;;90;;GENELEC MORIN;0;45.66;4.96;69780
2880;21;20;36;-45;5;SWEETAIR ENERGIE;3126;45.85;5.33;38390
2220;16;25;36;55;-4;GMV Industries;2296;45.44;5.62;38620
2996;18;25;;-40;-2;123 Solaire;3485;46.26;6.04;1630
3000;29;30;;-45;-1;Eco'logista - soleil en tete;3298;45.77;5.68;1300
2520;15;25;38;-25;-17;a2 energie;2815;45.31;5.91;38660
2960;21;15;35;-30;-5;CBI Energie;3275;45.85;5.12;1360
3000;25;25;36;45;1;SOLARIS-ENR;3279;46.38;5.01;1190
2800;21;25;;Sud;-1;SERPOLET BIDAUD;3516;45.43;5.26;38260
2996;18;20;37;70;0;ENERCOS technologies;3286;45.38;5.04;38270
3000;21;15;34;-45;-1;conseils eco generation;3008;45.14;5.82;38410
2996;18;25;;-70;;Eurl Rhone Genie Thermie;0;45.72;5.00;69740
2940;20;30;;-15;;Solaire energie systemes;0;45.37;5.52;38140
2940;22;20;37;-30;-2;Evasol;3293;45.64;4.24;42210
2300;17;30;36;Sud;-1;ALHENA  71740;2593;46.14;4.17;42190
2996;20;20;;-25;0;ARTIS EN SOLAIRE  (Avant ABC Energie sol;3534;45.40;4.17;42240
2940;24;25;37;65;-1;ENERCOS technologies;3069;45.58;4.69;69700
2960;22;20;;-80;;INTI PRO CONCEPT;0;46.04;5.40;1640
2160;12;20;;-75;-2;ARTIS EN SOLAIRE;2200;45.47;4.72;42410
2760;19;20;36;-45;0;ARTIS EN SOLAIRE;3103;45.51;4.90;38200
2996;21;20;36;40;-7;B et G Monteiller;3124;45.52;4.54;42320
2925;26;20;36;-20;-1;O2L;3345;45.71;4.78;69600
2820;20;25;37;-60;-2;CPAE;3060;45.37;5.51;38140
2996;18;30;;50;;123 Solaire;0;46.05;5.15;1320
2940;23;25;;35;;a2 energie;0;45.26;5.86;38190
3010;22;20;;Sud;;"abc &eacute;nergie solaire";0;45.74;4.17;42110
2590;20;25;;-75;;AIR SOLAIRE;0;45.56;4.27;42340
2940;20;20;;75;1;Fauche centre est;3052;45.46;4.51;42400
2100;16;30;;90;;Energia;0;45.99;4.03;42300
2990;28;15;;-90;-1;FAUCHE centre est;2921;45.52;4.23;42160
3000;23;35;36;-15;1;SOL ART DE VIVRE TRYBA SOLAR;3537;45.71;5.35;38460
2925;22;20;36;Sud;-2;Solaire Le Vent;3271;45.57;4.26;42340
2970;23;25;;20;-2;CLIPSOL;3664;45.31;5.29;38870
2940;18;25;;-15;-1;PHOTON ENERGIE;3270;45.63;5.42;38890
2960;22;20;36;5;2;INTI PRO CONCEPT;3423;45.85;5.10;1360
2960;21;25;37;Sud;-5;Energia;3334;46.05;3.91;42370
3000;16;30;36;90;1;RHONE SOLAIRE PRO;2868;45.82;4.65;69210
2800;21;25;37;Sud;0;123 Solaire;3245;45.87;4.72;69380
3000;20;25;36;-15;-1;DELTASUD;3359;45.80;4.59;69210
2996;22;30;;-5;0;Cermelec;3665;45.62;5.42;38890
3000;23;20;37;10;1;"Solha&iuml;c";3501;45.76;5.00;69330
2880;17;25;37;50;0;ENERCOS technologies;3217;45.84;4.85;69270
2940;21;30;36;Sud;0;obiou multiservices;3334;45.16;5.84;38410
2960;24;45;36;-45;1;"Watt &amp;amp;amp; Home";3118;45.15;5.75;38320
2940;20;20;36;-70;-7;a2 energie;2988;45.48;5.69;38480
2960;20;20;;90;;THERMO CONCEPT FOREZIEN;0;45.55;4.11;42610
2160;20;15;;Sud;-2;Cermelec;2547;45.63;5.42;38890
2996;18;30;;15;-1;LEPARGNEUR;3406;45.70;4.97;69800
2960;22;20;36;-20;2;INTI PRO CONCEPT;3313;46.12;5.19;1240
3000;16;35;37;Sud;-8;MADISUN;3610;45.47;5.98;38530
2960;20;25;;Sud;;ACTIVA ENERGIES;0;45.39;5.49;38140
3000;22;20;;35;-5;ENERCOS technologies;3524;45.64;4.74;69440
2100;16;35;37;-30;-2;EDMI;2457;45.39;5.51;38140
2960;23;45;37;30;-2;Ets Grange;3240;46.01;4.04;42300
2940;21;20;36;-50;0;"SES Solaire Energies Syst&amp;egrave;mes";3259;45.58;4.88;38200
2970;24;35;37;80;-1;LEPARGNEUR;2944;45.74;4.74;69290
2400;14;20;;50;-1;ARTIS EN SOLAIRE;2603;45.51;4.90;38200
2940;21;35;35;-90;-3;Forclum Infra Sud Est;2424;45.34;5.97;38570
2800;23;15;;-10;;"H&eacute;lios El+ autoconstruction";0;45.77;4.77;69130
2996;23;20;;-80;;artisan;0;45.55;5.07;38790
8925;60;40;36;-10;-6;Autoconstruction;9749;45.43;5.74;38380
2880;17;30;;40;;"SES Solaire Energies Syst&egrave;mes";0;45.22;5.77;38700
2996;23;25;35;-50;1;ENERCOS technologies;3288;45.56;4.80;69700
2996;18;25;36;10;1;A l Eau Solaire;3510;45.67;5.29;38460
6000;34;20;36;20;-3;"Solar D&eacute;veloppement";6732;45.93;4.70;69480
2960;21;20;;25;-1;solaire team;3378;45.59;5.17;38090
2960;21;20;37;Sud;0;TERRE D AVENIR;3432;45.67;4.81;69540
3000;24;20;;30;;solaris energie solaire;0;45.98;4.77;1480
2940;17;25;36;5;-18;"SES Solaire Energies Syst&egrave;mes";3328;45.22;5.77;38700
3010;16;25;;40;;123 Solaire;0;46.25;6.07;1280
3040;24;10;35;5;0;CAP ECO ENERGIE;3096;45.12;5.81;38410
2960;21;20;36;-5;0;Vent Solaire Applications;3452;45.65;4.98;69780
2968;18;20;36;90;2;a2 energie;2968;46.01;5.18;1320
2800;20;25;;35;-4;France Eco Energies Nouvelles;3092;45.64;4.74;69700
3000;22;30;37;-45;-4;lumensol.fr;3278;45.31;5.50;38210
2996;17;20;36;10;1;ENERCOS technologies;3509;45.58;4.91;38200
2996;18;20;35;-10;-2;FL Energie;3122;45.49;4.57;42420
2940;21;30;37;-5;0;Expert Solaire;3525;45.82;4.89;69140
3000;23;20;;40;;solaris energie solaire;0;45.99;5.05;1330
2350;14;25;;20;0;PHOTON ENERGIE;2620;45.58;5.32;38300
3000;25;25;37;50;-2;SOL R ELEC;3302;45.38;5.53;38140
2800;21;30;36;45;2;SADEJA SOLAIRE;3154;45.88;5.22;1800
2996;17;25;34;-5;0;Rhone Alpes energie;3232;45.39;4.32;42500
2850;24;20;37;30;0;CAP ECO ENERGIE;3246;45.67;4.82;69540
3000;28;25;36;35;-1;AMITEL CLIM;3302;45.20;5.83;38420
2940;20;30;;-5;-1;APE SUD;3452;45.49;5.52;38730
2880;21;20;36;Sud;-1;NOVELIO;3255;45.83;4.61;69210
2940;20;30;35;25;-21;a2 energie;2860;45.37;6.04;38830
2880;21;35;;45;;Solero.terre d'avenir;0;45.33;5.48;38140
2960;21;30;36;-45;-11;France Ecologis et Isicom Services;3227;45.88;4.43;69170
2996;18;20;;15;;"SES Solaire Energies Syst&egrave;mes";0;46.06;4.65;69460
2960;21;25;37;25;-5;Eco Alternatives;3402;45.22;5.77;38240
2996;24;45;37;70;-2;kinergy-scommesolaire;2944;46.32;6.06;1170
2960;23;20;35;45;1;M2IS;3190;45.80;4.60;69210
2996;18;20;;10;0;ENERCOS technologies;3528;45.35;5.58;38500
2960;22;25;;-45;-2;Evowatt;3307;45.44;6.01;38530
2880;19;15;37;40;0;123 Solaire;3196;45.77;4.91;69120
2996;18;20;36;-40;1;A l Eau Solaire;3365;45.61;5.13;38090
2970;18;25;;30;-1;A l Eau Solaire;3593;45.65;5.18;38290
2960;22;20;37;-75;-10;LEPARGNEUR;2990;45.26;5.86;38190
3010;30;25;36;-70;-2;BS AUTOMATION;3070;45.51;4.21;42160
2880;22;30;37;Sud;2;ALVENA;3463;45.99;5.05;1330
2800;23;35;36;90;-8;Energia;2431;46.14;3.85;42310
3000;16;20;36;Sud;-2;Dimension Energie;3358;45.52;4.18;42450
3000;25;20;;-25;-1;LEPARGNEUR;3330;45.69;5.07;69720
2940;23;20;37;Sud;-1;Solaire Direct;3337;45.96;4.66;69400
2880;21;20;;45;-1;TERRE D AVENIR;3145;45.54;4.62;42800
6240;40;40;36;90;2;bee;5734;46.31;5.16;1340
2720;21;25;;85;;SPER;0;45.75;4.21;42110
3000;16;40;36;-5;-2;a2 energie;3476;46.23;5.99;1710
3000;25;25;;-40;;Rhone Genie Thermie Chassieu;0;45.73;5.38;38510
2940;20;25;37;-90;0;APE SUD;2876;45.77;4.89;69100
3000;19;20;36;60;1;"SES Solaire Energies Syst&egrave;mes";3228;45.74;5.21;38460
3000;25;25;;-20;;A l Eau Solaire;0;45.81;5.39;38390
2640;23;20;;Sud;-1;"Soleil en T&ecirc;te";2847;46.33;5.23;1851
2940;24;30;;60;;MS SOLAIRE;0;45.64;4.29;42210
3000;23;30;;10;1;Pi energies;3599;45.35;5.60;38500
2996;18;35;;Sud;-1;THERMO CONCEPT FOREZIEN;3546;46.16;4.09;42190
2960;21;20;37;-30;1;solaris energie solaire;3388;45.67;5.01;69720
1750;14;20;;60;0;ENERPROD;1763;45.59;4.39;42140
2996;24;30;36;-80;1;ARTIS EN SOLAIRE;2971;45.63;5.55;38630
2940;20;25;36;-40;-5;APE SUD;3489;44.86;5.68;38710
6000;43;15;36;10;1;PCIM PV SOLUTIONS;6766;45.61;5.21;38080
3200;24;25;36;-45;0;PDR MACON;3485;46.34;5.01;1380
2940;20;35;37;-60;-8;a2 energie;3097;45.26;5.85;38190
22960;174;10;34;50;-14;Free Power;22008;45.76;3.82;42111
2940;24;30;36;85;2;SIPN SOLAIRE;2875;46.22;5.07;1660
3000;24;30;37;-20;-2;A S F;3442;45.58;4.20;42210
3000;17;35;;-65;;a2 energie;0;45.35;5.65;38134
2880;21;30;37;-30;0;IDESCO;3333;45.74;4.78;69110
2800;21;20;37;Sud;-1;Energia;3083;46.09;4.11;42720
3000;23;30;37;70;2;ALPSOLEIL;3151;45.79;5.69;1300
3000;22;20;;-50;;ENERCOS technologies;0;45.50;4.80;69420
3000;20;20;37;Sud;1;123 Solaire;3498;45.84;5.06;1120
2996;18;20;;40;-4;123 Solaire;3286;45.63;5.03;69780
3000;30;20;36;60;1;MEAUBELEC;3248;45.56;5.26;38300
2960;22;20;36;Sud;1;ACTIVA ENERGIES;3406;45.70;5.33;38460
2960;21;25;;45;;ENODOM;0;45.22;5.86;38420
2040;15;25;;-65;-1;ENERGIA GDF SUEZ ;2041;46.26;5.62;1100
3000;25;20;;80;;solaris energie solaire;0;45.73;4.73;69340
3000;16;30;31;-5;34;lepargnieur;2816;45.30;5.59;38210
2280;19;25;;15;0;Sol Azur;2706;45.56;4.37;42330
3010;24;20;;60;;a2 energie;0;45.26;5.85;38190
2960;20;25;;-85;;ARC Habitat;0;45.27;5.87;38920
2960;20;15;37;45;-1;ch;3094;46.00;4.05;42120
2996;18;20;;-80;-1;THERMO CONCEPT FOREZIEN;3123;45.52;4.58;42800
2960;20;20;;Sud;-5;DELTASUD;3508;45.37;4.64;42520
2940;22;20;;Sud;;Evasol;0;45.93;4.26;42470
2996;18;30;37;-20;-3;SOLUTION SOLEIL ENERGIE;3365;46.25;5.56;1580
3000;16;20;37;20;1;"Solar D&eacute;veloppement";3451;45.90;4.83;1600
2450;16;35;;30;;A2Energie par BTW;0;46.25;5.65;1100
3000;17;30;;20;-2;A l Eau Solaire;3311;45.70;5.20;38460
10494;53;25;;-5;-1;"SES Solaire Energies Syst&egrave;mes";12485;45.56;5.25;38300
2960;22;20;;10;-1;soleil.energie.SAS;3245;45.74;4.23;42110
2996;24;20;;5;-5;Thermi Service;3148;46.14;4.28;42460
2996;18;45;;Sud;;enr watt;0;45.44;5.98;38530
2996;23;15;;Sud;-1;ENERCOS technologies;3306;45.67;4.86;69320
2720;22;25;;-90;;ALVENA;0;45.81;4.83;69660
2960;20;20;;-45;-2;France Eco Logis;3293;45.69;4.03;42130
3000;16;20;36;-60;1;"SES Solaire Energies Syst&egrave;mes";3210;45.60;5.21;38080
2996;17;25;;-60;;MADISUN;0;45.33;6.10;38580
2880;17;25;;-45;;THERMO6CONCEPT FORESIEN;0;45.86;4.03;42260
2996;18;25;37;-85;1;123 Solaire;3000;45.78;5.01;69330
1020;9;25;;Sud;;Pi energies;0;45.19;5.69;38600
2960;22;20;36;Sud;3;IDESKO;3389;45.90;5.34;1150
2700;20;35;36;-10;-2;FE Solar;3168;45.48;5.51;38730
3150;23;20;;70;-1;S comme solaire;3196;45.73;4.76;69340
2080;16;25;;45;-2;AR VIGELEC;2419;45.27;5.88;38920
24000;135;30;;45;;a2 energie;0;45.83;5.53;1510
2775;20;20;;-90;;Solutions Soleil Energie;0;45.61;4.92;69970
3010;23;30;37;-60;-3;a2energy;3217;45.30;5.49;38210
2960;21;20;36;-90;-1;LEPARGNEUR;2851;45.49;4.24;42170
3000;30;30;36;75;1;EPB Solaire;3061;45.57;5.43;38110
2880;20;20;37;-20;0;OPTI ENERGIE;3333;45.69;4.97;69800
2960;20;40;35;-80;-3;WATT et HOME;2922;44.99;5.77;38119
2940;19;15;36;45;2;Kapenergie+;3169;46.13;5.26;1240
2450;18;20;;60;-2;Palluets Freres;2363;46.03;3.93;42370
2100;15;20;;-80;;Evasol;0;46.15;4.67;69910
2996;21;25;;5;;PV du Rhone;0;45.74;4.85;69007
2940;19;25;37;-5;5;a2 energie;3408;45.95;5.61;1110
3000;25;30;37;Sud;-14;SOL R ELEC;3596;45.15;5.67;38180
3000;30;30;38;-75;-12;PWP;3174;45.39;5.94;38660
2960;21;20;37;Sud;1;IDESKO;3429;45.74;5.18;38230
2160;20;20;;50;;KBE Solaire;0;45.35;5.52;38140
3000;27;40;36;-75;-3;grp;3005;45.49;5.38;38690
3000;23;35;;5;;KBE Solaire;0;45.18;5.86;38420
2996;18;20;36;40;0;SOL ENERGY;3295;45.70;4.80;69600
3010;18;20;35;Sud;1;123 Solaire;3405;45.26;5.56;38210
2960;20;20;36;-90;-1;ISICOM Services;2870;45.40;4.18;42240
2960;21;20;36;45;0;cherbland combustibles;3247;45.48;4.64;42800
3000;22;25;37;-10;-2;lumensol;3517;45.37;5.52;38140
2960;22;25;36;-45;-2;Solutions Soleil Energie;3278;45.63;4.72;69440
3000;24;20;36;Sud;2;"Soleil en T&ecirc;te";3399;46.28;5.16;1340
2460;19;25;36;-40;0;Soleil Energie SAS;2728;45.96;5.36;1500
2880;23;20;36;10;-3;Concept Energie;3247;45.18;5.75;38400
2996;18;20;;10;;LOGISUN;0;45.82;4.96;1700
2996;23;20;;Sud;;ECO ENERGIE SYSTEMES;0;45.84;4.53;69490
2700;21;15;37;45;2;KBE Solaire;2919;45.37;5.59;38500
2996;18;25;36;20;4;123 Solaire;3432;45.86;4.71;69380
2760;20;30;36;Sud;0;Solaire Direct;3293;45.39;5.22;38260
2000;16;20;;70;1;Evasol;2102;45.42;4.88;38150
6300;50;30;37;-45;-1;Solaire Direct;6957;45.96;4.66;69400
3000;21;45;37;60;-20;AMITEL CLIM;2602;45.38;5.95;38660
2880;20;20;37;85;-1;energy direct solar;2758;46.13;4.10;42720
2940;21;35;36;Sud;-2;Solaire Energie Systemes;3339;45.35;5.60;38500
1800;6;15;37;-45;-1;COZY EST;1947;45.61;4.67;69440
2880;43;20;35;45;9;ALTESOL;3124;46.10;5.32;1160
3000;20;15;37;-20;0;moi;3432;45.45;4.78;38370
3000;15;25;33;-5;3;"&amp;Eacute;lectricien ";3272;45.18;5.79;38610
3000;16;30;37;-170;-1;fleury fabien;1987;46.14;4.10;42720
3220;20;35;37;45;-2;Solaire Direct;3564;45.36;5.57;38500
2940;23;15;37;Sud;1;1 2 3 Solaire;3355;45.74;4.93;69500
3000;17;45;37;-45;-1;ISOWATT ;3314;45.35;5.57;38500
5120;26;20;35;25;7;Actelios;5821;45.62;5.23;38080
2880;24;15;37;20;2;Inti Pro Concept;3254;45.83;5.10;1360
6000;62;25;38;20;-4;SCTD industrie;6611;46.27;5.61;1100
3000;17;20;36;-75;-4;moi;3037;46.03;4.63;69460
2250;15;30;37;35;-1;GROUPE SOLAIRE DE FRANCE;2572;45.74;4.69;69290
2992;22;25;36;45;1;"Soleil en T&amp;ecirc;te";3391;45.61;5.13;38090
3600;23;30;35;-40;19;ECORENOVE;3653;45.95;5.61;1110
1200;6;90;37;-90;-1;moi;713;45.39;5.41;38690
3000;16;35;37;Sud;0;Energie Habitat;3609;45.75;4.90;69100
1500;8;40;36;Sud;-2;"G&amp;eacute;oclim";1715;45.56;4.30;42340
8604;60;25;35;5;2;Fe Solar;10073;45.25;5.24;38940
3075;20;25;35;55;2;Pienergies;3186;45.27;5.54;38210
2520;20;25;36;45;-8;KBE;2569;45.24;5.85;38330
3000;20;15;36;-60;-2;Solartec;3173;45.97;4.79;1600
500;3;30;36;45;-1;Personelle;543;45.52;4.61;42800
3600;22;0;36;Sud;2;Moi ;3706;45.52;4.87;38200
2975;14;25;36;90;1;6nergies;2918;45.58;5.37;38300
3600;20;20;37;35;1;monkitsolaire;4125;45.92;4.95;1390
2880;25;20;35;Sud;-1;SARL Prenergy;3299;45.61;5.18;38090
3000;21;25;37;-45;-4;MJ Energies;3198;46.03;3.94;42370
8700;50;30;36;-100;0;Eco energie systemes;7639;45.97;4.33;69550
1095;5;25;37;20;0;Edouard;1315;45.47;4.81;38121
6000;32;15;36;180;1;PROTEC ENERGY;5102;46.11;4.95;1400
2590;21;20;36;-90;1;COBSOLAIRE ;2575;45.61;5.14;38090
7840;45;90;36;25;-2;Scientec;5726;45.47;4.52;42400
3000;35;15;37;-30;-3;ENEOPRO;3298;45.60;4.06;42600
3240;12;25;37;-45;-9;TOIT SOLAIRE MONTPELLIER;3759;45.19;5.68;38600
6000;33;20;37;-45;-6;Lumensol;6714;45.21;5.75;38700
3000;16;20;35;-75;-4;solair confort;2935;45.42;4.31;42230
2970;15;35;36;30;-8;EDF ENR;3378;45.41;4.72;42410
990;5;20;36;Sud;2;"Moi-m&amp;ecirc;me";1121;46.19;5.16;1310
2500;20;15;36;Sud;0;Eco systeme;2789;45.58;5.60;38490
1800;10;35;35;-40;-6;World Energy;2055;45.09;5.68;38760
2880;15;10;37;45;1;Protec Energy;3111;45.86;4.91;1700
1700;16;30;36;Sud;-23;ne sais pas encore;1760;45.43;6.08;38580
9450;34;40;37;45;1;Ecologis;10522;45.69;5.43;38510
1600;25;30;37;-120;-3;"Moi m&amp;ecirc;me ";1298;45.85;3.83;42430
2480;13;20;34;25;1;autoconstruction;2591;45.11;5.80;38410
3410;18;30;37;45;-29;aRteis Solaire;3275;45.20;5.66;38360
2970;15;15;36;30;-5;EDF ENR;3311;45.40;4.72;42410
6300;35;35;36;45;0;AGPG;7211;45.25;5.77;38700
2500;20;15;36;Sud;1;Eco systeme;2790;45.58;5.60;38490
6000;32;35;36;45;2;Dimeo Energie;6584;46.24;5.26;1440
2590;30;25;37;Sud;-1;AB Energy;3042;45.74;4.68;69290
3000;20;20;36;60;0;PRIVE;3174;45.95;4.69;69480
9000;60;30;36;-10;2;Solartec;10318;46.33;5.19;1340
3000;15;35;35;90;-6;FRANCE ECO SOLAIRE;2712;45.09;5.68;38760
600;24;15;36;45;2;Energia puis actenergie ;653;45.60;4.78;69520
560;3;35;37;Sud;0;Moi;689;45.46;4.84;38121
3000;18;35;36;Sud;-3;Sweetcom ;3513;45.39;4.06;42380
2835;14;25;36;5;2;A2energie;3337;45.60;5.17;38090
2940;24;40;36;-50;1;"Pic-m &amp;eacute;nergie ";3229;45.52;5.25;38300
2970;15;25;36;Sud;1;mois meme;3427;45.52;5.45;38110
2400;15;20;36;-165;-1;Perso;1901;45.44;4.11;42380
3000;17;15;37;-45;-1;ENERGIC;3282;45.71;4.81;69600
9000;50;45;37;-90;1;6Nergies;7965;45.76;5.76;1300
1960;10;45;37;Sud;-2;bibi;2445;44.87;5.65;38650
2940;20;15;37;10;-2;ERDS 69440 MORNANT;3250;45.84;4.62;69210
7410;50;15;36;45;-6;"WATT &amp;amp; HOME ";7926;45.14;5.71;38130
600;3;20;36;30;0;moi;685;45.60;4.83;69360
3960;20;25;36;-20;-2;EDF ENR;4771;45.32;4.77;38550
2940;20;30;36;45;0;TENESOL;3328;45.60;4.83;69360
3000;23;40;36;20;5;PIENERGIES;3521;45.29;5.63;38340
2880;20;15;36;-180;-6;MERCIER;2304;45.43;6.02;38530
10494;60;25;36;Sud;1;"solaire  &amp;eacute;nergies syst&amp;egrave;mes";12282;45.55;5.26;38300
2700;17;10;37;-15;1;"moi m&amp;egrave;me";2969;45.89;4.83;69730
5400;20;20;37;-65;1;Protecenergy;5745;45.89;4.92;1390
3220;20;30;37;45;-1;Solaire Direct;3561;45.36;5.59;38500
3072;24;30;36;-20;1;CERMELEC;3409;45.15;5.83;38410
2400;13;30;36;Sud;1;auto-construction;2895;45.49;5.29;38300
520;3;45;37;-180;0;EFI;272;45.55;4.71;69700
3000;17;30;36;45;-1;GSE confort;3346;45.60;4.79;69520
7000;30;20;37;-90;0;Artemis Concept;6920;46.02;4.83;1480
3080;20;35;37;15;1;LEPARGNEUR;3697;45.70;4.97;69800
2220;20;30;37;-45;0;Sweetaire;2454;45.34;5.57;38430
1800;13;15;37;-90;0;BCH;1785;46.07;4.76;1090
5100;45;30;35;-100;2;EDF OA;4557;45.46;5.60;38620
3000;160;20;37;-45;-1;ECORENOVE;3165;46.16;4.12;42190
3000;17;45;34;45;3;avenir energies;3026;45.11;5.81;38410
4130;80;15;36;-45;3;AVENIR SOLUTIONS ENERGIE;4380;45.95;5.36;1500
4800;26;25;34;40;-2;Autoconstruction;4716;45.36;6.04;38830
4900;40;45;36;10;3;bio sol air energie alexandre dode;5878;44.96;5.74;38770
5775;37;45;36;45;2;"Andr&amp;eacute;a Energy et AFC climatisation";6420;45.76;5.17;38230
141;50;20;36;Sud;1;123solaire;163;45.90;5.20;1800
3000;16;35;36;-5;2;Moi;3374;45.15;5.84;38410
9100;48;20;36;30;0;Eneopro;10220;46.12;4.81;1140
1050;12;30;36;90;0;GECO SYSTEME;1014;45.39;5.28;38260
920;6;45;36;Sud;0;kit;1051;45.52;4.64;42800
1400;22;25;36;55;-2;energic solaire;1484;45.56;4.27;42340
2880;120;30;34;Sud;-4;"Soleil en t&amp;ecirc;te";2949;45.30;5.99;38570
600;3;20;37;75;1;Sorel;625;45.83;4.76;69760
3360;16;25;36;15;5;CPAE;3916;45.29;5.63;38340
1860;16;45;35;Sud;12;100% sol air;2185;45.00;5.79;38220
9100;46;20;36;85;1;artemis concept;8901;45.90;4.11;42590
1050;16;25;37;Sud;-3;R.Confort;1216;45.61;4.08;42600
2280;21;20;36;20;-2;sun elec;2524;45.56;4.37;42330
2996;17;20;37;-90;-2;FL Energie;2844;46.03;4.01;42155
4500;25;35;35;5;1;auto-installation;5040;45.18;5.87;38420
6000;34;20;37;-60;-2;Isowatt;6440;45.74;4.75;69340
3000;18;15;36;45;0;Sol Air Confort;3301;45.69;4.89;69200
8820;61;20;37;20;-1;Moi meme;9882;45.85;4.61;69210
2340;12;20;37;45;-3;Moi;2567;45.20;5.76;38240
2534;15;35;37;Sud;0;Moi-meme;2973;45.34;5.58;38430
2400;32;20;34;Sud;2;Moi;2533;45.38;4.30;42500
3550;17;30;36;Sud;1;"confort solution &amp;eacute;nergie";3975;46.08;4.34;69240
3750;19;20;37;60;0;perso;4037;45.76;4.77;69160
432;20;15;36;-180;1;enedis;369;45.58;5.40;38110
2996;18;25;34;30;-3;Brun-Staron;3082;45.43;4.41;42100
5200;14;15;35;-90;-1;my sun by cap sud;5196;45.61;5.18;38090
6000;29;20;37;20;0;Rhone solaire pro;7194;45.38;5.04;38270
35700;235;30;36;-5;3;Solartec;41399;46.20;5.19;1000
2960;20;30;37;30;0;solar;3408;45.88;4.79;69650
2745;15;30;36;30;-4;unknown;3051;46.21;5.94;1630
1728;20;5;37;45;-1;Solaire Direct;1730;46.07;4.07;42300
3220;23;20;37;-95;0;SONIL;3151;45.83;4.88;69580
2940;23;20;37;-80;-3;solaire Direct / SONIL LYON;2910;45.55;4.59;42800
1122;10;35;38;-45;0;MICHEL Philippe;1265;45.76;5.70;1300
3960;23;45;36;-180;2;edf energie;2031;46.19;5.17;1310
5600;24;15;37;90;0;Pengueen;5616;45.71;4.75;69630
1980;11;40;36;Sud;0;InSunWeTrust;2270;46.40;4.91;1190
6300;31;40;36;45;1;ARTEIS Solaire;6952;45.45;5.54;38850
3000;17;15;37;90;0;SC ELEC;3042;45.45;4.76;38370
1400;6;45;35;Sud;-13;moi meme;1525;45.12;5.52;38112
3330;16;15;36;Sud;1;Moi;3794;45.59;4.80;69360
2400;13;20;36;90;0;MAISON INNOVANTE;2353;45.54;5.47;38110
2250;11;30;37;-45;-1;"Moi m&amp;amp;ecirc;me ";2529;45.73;4.65;69670
10500;40;35;35;50;2;ISOWATT;11385;44.87;5.84;38350
1100;6;20;37;Sud;-1;DIY;1270;45.72;4.71;69126
2835;15;15;36;Sud;0;edf enr;3221;45.60;4.81;69360
2200;14;45;36;-180;1;particulier;1155;45.56;5.26;38300
9000;50;50;36;-75;-2;Energisol;8722;45.52;4.90;38200
6000;40;45;37;Sud;-2;Lumensol;7151;45.39;5.50;38140
1800;9;30;36;Sud;-2;chouzy pagnon;2057;45.77;4.36;69770
4440;20;35;36;90;2;Ronger;4170;46.34;5.12;1340
2996;22;35;36;20;0;Cermelec energie;3341;45.15;5.83;38410
4000;14;30;37;Sud;1;DIY;4776;45.87;4.84;69250
700;3;60;34;-45;-2;perso;673;45.38;4.44;42660
1980;18;45;33;Sud;2;HABITAT CONSEIL ENERGIE;2245;45.58;5.26;38300
2960;25;25;36;60;-1;"Whatt&amp;amp;Home";3160;45.39;5.35;38260
904;16;15;36;45;0;Rhone Solaire;971;46.17;4.80;1140
3000;23;20;36;Sud;1;Soleil Energie;3473;45.53;5.29;38300
1980;25;15;36;-20;1;BEEE Villeurbanne;2189;46.11;4.78;1090
3000;10;15;37;180;0;AB SERVICE;2657;45.38;5.03;38270
2280;15;30;36;30;1;Moi;2626;46.11;4.96;1400
2640;9;35;36;Sud;1;enr edf;3244;45.48;4.94;38780
6000;32;20;36;90;1;Futures Solutions Cartaillier;6057;45.58;4.90;38200
3000;12;15;37;45;-1;Photen ;3363;45.36;4.70;42520
4560;40;30;37;-180;0;Sweetair;3113;45.62;5.50;38110
6000;31;30;34;-35;6;isowatt;6331;45.20;5.47;38470
6500;43;25;36;45;0;Mysun;7203;45.59;5.52;38110
0;12;15;;Sud;;DOMUNEO;0;46.11;4.71;69220
2400;16;40;37;Sud;-2;SOLAIRE ENERGIE SYSTEM;2877;45.39;5.50;38140
3000;16;20;36;40;-3;ARTEIS SOLAIRE;3074;45.45;4.42;42650
2970;15;30;36;-5;-1;wattethome;3522;45.39;5.26;38260
2640;14;30;36;5;1;moi;3097;46.11;4.95;1400
6120;32;20;36;15;-1;ARTEMIS CONSEIL;6900;45.78;4.61;69210
1620;14;35;37;-145;0;moi;1125;45.67;4.94;69780
3600;21;25;36;90;2;VIVAENERGIE;3544;46.09;5.12;1240
5760;29;15;37;45;1;VOLTALIA;6322;45.90;4.82;1600
9075;55;25;36;45;-4;Confort Solution Energie;9745;45.80;4.42;69770
3200;15;35;37;-30;0;Moi meme;3713;46.28;6.05;1170
2870;14;35;37;45;6;PIENERGIES;3269;45.23;5.68;38120
3000;18;15;38;-180;-8;Moi-Meme;2542;45.21;5.74;38700
2920;15;45;37;-45;-16;perso;4270;45.35;5.93;38660
2700;16;20;37;Sud;1;Viva Energie;3158;45.71;4.97;69740
730;3;30;36;Sud;0;Moi;875;45.65;4.94;69780
2400;10;40;36;-10;1;moi;2693;45.15;5.83;38410
2790;16;45;36;-45;3;moi;3028;45.77;4.84;69006
3500;18;30;35;Sud;2;Comte Elec;4111;45.52;5.35;38300
6000;20;35;36;Sud;-2;ABC Energie;6668;45.50;4.58;42420
9000;59;15;35;-90;-6;MYSUN;9102;45.09;5.68;38760
11100;60;20;36;-45;1;"moi m&amp;amp;ecirc;me";12622;45.48;5.10;38440
6240;30;30;36;90;3;-;5978;45.70;5.57;1300
6000;32;30;36;90;3;Solak energie;5921;45.55;4.98;38780
2500;10;30;37;-45;0;"&amp;Eacute;nergie habitat ";2898;45.37;4.79;38550
4020;17;30;36;-10;-2;ARTEIS;4752;45.63;4.84;69360
300;5;15;36;Sud;1;Plomberie;338;45.61;5.24;38080
2000;13;20;36;30;1;MEDIA SYSTEME 1BLD ONFROY 13008 MARSEILLE;2290;45.50;5.18;38440
660;12;15;36;-45;1;JP ELEC;719;45.60;5.22;38080
3200;17;40;36;-90;1;PROTEC ENERGY;2906;46.21;4.94;1290
8400;70;30;37;90;0;Sol Air Confort;8089;45.64;4.78;69390
2100;14;30;37;Sud;-1;bp69;2476;45.88;4.77;69380
1520;7;30;36;45;-3;sans objet;1650;45.48;4.09;42560
2625;7;15;37;-45;0;ENR;2882;45.73;4.89;69500
7200;200;45;35;Sud;1;PIE;8079;45.46;4.34;42390
4800;22;30;35;Sud;-5;Photen;5199;45.48;4.37;42270
2940;23;30;37;90;0;GEOCAPT;2841;45.71;4.75;69630
6000;36;30;37;45;1;Isowatt;6840;45.72;5.10;69124
1400;10;15;36;180;-4;Sunwatt;1162;45.67;4.38;69610
2640;14;30;36;Sud;-1;EDF;3009;45.81;4.59;69210
2400;100;30;36;-135;-2;moi;1805;45.41;4.27;42240
5180;24;30;36;15;-1;"Watt &amp;amp; home";6046;45.19;5.31;38160
3240;16;20;37;10;0;"Moi m&amp;amp;ecirc;me";3745;45.71;4.75;69630
2625;13;20;37;-5;0;EDF ENR;3061;45.80;4.83;69009
3120;15;20;37;-5;1;moi;3632;45.80;5.05;69330
2160;20;20;36;-110;-2;sweetair;1990;45.10;5.24;38840
1480;12;30;37;Sud;-2;Sol Air Confort 42240 UNIEUX;1716;45.67;4.29;42210
1320;16;45;37;-140;-2;XXX;821;45.36;5.57;38500
6375;32;35;37;45;-15;ARTEMIS CONCEPT;6340;45.36;5.95;38660
3120;15;30;37;-45;0;Moi;3450;45.90;4.77;69650
3000;16;30;37;Sud;0;Rhone Dolaire Pro;3590;45.77;4.90;69100
3200;16;35;36;Sud;1;moi meme;3683;46.42;4.96;1190
2880;15;20;36;15;0;Lumensol;3278;45.17;5.33;38160
5920;36;20;37;-60;-1;"Abeylle &amp;eacute;lectricit&amp;eacute; ";6348;45.73;4.71;69126
2960;14;30;36;Sud;-1;AUTO-CONSTRUCTION;3303;45.97;4.33;69550
2928;19;20;36;35;-3;Rhone alpes ENR;3017;45.48;4.42;42350
3000;14;25;37;-30;-3;WATT et HOME;3355;45.21;5.80;38240
480;15;15;37;45;1;EDF ENR;530;45.84;4.86;69270
6000;16;45;36;Sud;1;EDF ENR;7195;45.61;5.01;38540
9000;43;15;37;-20;-3;EDF ENR;10184;45.21;5.77;38240
3000;15;25;36;-45;1;Moi;3352;45.53;5.29;38300
3300;18;15;37;-180;0;OPEN ENERGIE;2790;45.74;5.66;1300
2400;10;35;35;Sud;-4;DiY;2856;45.42;5.31;38260
5920;32;40;37;-90;-6;in sun we trust;5421;45.40;5.97;38530
2870;10;20;37;-50;-1;courant naturel;3104;45.83;4.64;69210
6520;34;45;38;40;-6;Eco Solar Pro;7372;45.30;5.87;38660
8910;50;30;37;-45;1;Moi;9930;45.68;5.47;38510
3000;20;35;36;-45;1;easolaire;3311;45.96;5.31;1500
6000;30;30;37;Sud;0;"Art&amp;eacute;mis concept";7018;45.93;4.78;1600
2960;15;30;35;45;0;moi;3116;45.39;4.29;42700
3000;12;15;29;40;-11;AGPG;2895;45.14;5.75;38320
4800;23;30;36;30;0;SOLAIRALP;5113;45.40;5.73;38380
3240;24;30;36;-45;0;lumensol;3505;45.50;4.30;42480
5865;29;15;36;-180;-9;energieplus;4846;46.12;4.60;69430
3000;14;35;30;-45;0;Moi;2687;45.08;5.89;38220
3000;15;25;37;Sud;-1;aroled;3461;45.96;4.65;69400
3200;50;40;37;180;-1;protec;1810;45.96;4.65;69400
9000;45;20;37;100;2;COLLINET;8721;45.81;5.15;1800
3000;15;20;36;30;-3;"Fauch&amp;amp;amp;eacute;";3140;45.46;4.49;42400
1760;15;35;36;15;1;A;2110;45.58;4.87;38200
3000;18;20;36;100;1;Air Confort;2933;45.62;5.07;38540
2940;240;45;37;Sud;0;CG2F;3470;45.64;4.78;69390
6640;32;20;37;90;0;Courant Naturel;6628;45.64;4.80;69390
3200;14;40;36;60;-2;MICHEL;3285;45.57;4.29;42340
2940;23;20;37;90;0;123 solaire;3003;45.44;4.78;38370
3000;17;30;35;-10;-13;"moi-m&amp;ecirc;me";3381;45.67;5.67;1300
1080;12;35;37;-180;0;Moi meme;694;45.42;4.88;38150
1320;2;20;37;Sud;-1;Moi;1524;45.75;4.70;69290
9000;30;35;37;-50;-14;Domosolaris;9661;45.36;5.95;38660
4200;21;35;37;-45;-2;sogelec;4749;45.21;5.78;38240
7500;35;30;36;Sud;0;SOLELY;8837;45.59;5.47;38110
4000;20;25;35;-5;-3;auto installation;4550;45.96;4.61;69640
6750;34;15;36;Sud;1;EDF ENR;7576;45.68;5.37;38460
800;4;25;37;5;-12;Autoinstall;938;45.10;5.67;38760
7500;31;20;36;-15;-3;Rhone solaire pro;8619;45.76;4.65;69290
7500;35;25;36;Sud;-5;"Rh&amp;ocirc;ne solaire Pro";8541;45.89;4.49;69490
3160;15;15;36;20;-1;Moi-meme;3456;45.73;4.46;69930
2000;28;35;37;-115;-2;solar industrie;1650;45.36;5.57;38500
6000;32;15;37;Sud;-1;Karawatt;6638;46.11;4.72;69220
3200;15;40;37;Sud;-1;Myself;3817;45.73;4.67;69670
4500;22;20;37;70;1;"Moi-m&amp;amp;ecirc;me";4792;45.78;4.99;69330
6000;32;30;36;10;0;ISOWATT;6937;46.18;5.97;1630
1620;8;35;36;45;1;moi;1852;45.51;4.87;38200
6000;28;25;37;Sud;0;Futures Solutions Energies;7030;45.69;4.79;69230
790;4;30;36;Sud;-5;moi;1153;46.01;3.93;42370
3000;15;30;37;30;-3;Domosolaris;3477;45.25;5.84;38330
6090;42;20;37;20;-1;FL energie;7032;45.50;4.74;69420
7500;39;20;37;45;-2;Geoclim Loire;8173;45.63;4.24;42210
0;30;30;;Sud;;CS ENERGIE;0;45.19;5.68;38600
4860;20;35;36;45;-3;MM;5132;45.21;5.40;38470
2400;16;15;37;-45;0;soleil et climat;2642;45.59;4.82;69360
6000;32;20;36;-180;1;Isowatt;4750;45.76;5.41;38390
1000;7;25;36;45;1;tryba energie;1111;46.14;4.89;1400
800;4;15;36;90;1;Sunology;796;45.56;5.45;38110
2000;20;5;37;45;1;NED Energie;2108;45.76;4.92;69120
3200;40;15;36;Sud;-5;artemis ;3518;45.87;4.62;69380
2500;20;25;36;-45;-4;asf acces solaire;2785;45.83;4.65;69210
3600;17;35;37;-15;-4;Auto construction;4245;46.28;6.01;1170
1480;14;40;34;-45;-17;watt et home;1531;45.13;5.58;38250
2280;11;35;37;-20;-1;moi meme;2630;45.89;4.62;69380
1640;8;35;36;Sud;-11;Moi;1868;46.20;4.64;69820
2970;24;30;37;45;-7;Euroconfort;3112;45.28;5.89;38920
5850;35;15;36;-60;3;AEC;6288;45.50;4.86;38200
2960;15;35;37;Sud;-2;NC;3476;45.33;5.42;38140
9000;47;15;36;10;0;Pienergies;10242;45.27;5.65;38340
300;2;45;37;-45;0;perso;333;45.79;4.78;69130
2700;20;25;37;-90;-2;"Entrprise ferm&amp;eacute;e";2622;45.55;4.18;42450
960;10;30;36;Sud;0;Null;1102;46.35;4.90;1570
2500;17;15;36;Sud;0;Ecorenove;2734;46.30;4.84;1750
2400;9;35;31;-180;-14;And970;1546;44.82;5.83;38710
5250;40;25;36;-180;-8;Moi;3924;45.13;6.02;38114
4560;24;35;36;Sud;2;Sadeja;5302;46.17;5.28;1250
1320;12;30;37;-120;-3;EDF ENR;1102;45.61;4.50;69590
1500;7;20;36;65;2;Moi;1598;45.88;5.31;1150
3000;15;25;36;15;0;Artemis concept;3500;45.73;4.75;69340
1140;3;35;37;Sud;0;personnel;1405;45.38;4.77;38550
1440;24;30;37;Sud;1;Lepargneur ;1731;45.74;4.98;69680
1620;10;30;36;Sud;0;particulier;1894;45.54;5.47;38110
2940;20;45;37;Sud;-1;SOLAIRE DIRECT;3437;45.88;4.71;69380
1712;12;30;36;Sud;0;Particulier ;2051;45.47;5.31;38690
768;20;25;36;5;1;photowatt;883;46.21;4.95;1540
4500;36;20;36;180;-1;Test;3647;45.50;4.80;69420
6000;23;30;37;45;1;moi;6846;45.77;5.00;69330
2920;16;20;36;45;-2;cpae solaire;3185;45.49;5.56;38850
3080;15;20;36;80;1;auto installation;3209;45.60;4.99;38540
1520;7;30;35;Sud;-5;auto;1628;45.47;4.54;42400
5000;36;45;37;90;-1;Ecorenov;4428;46.15;4.72;69220
2850;16;45;37;60;-2;moi;2947;45.73;4.21;42110
460;4;35;36;-10;1;Personnel;544;45.62;5.24;38080
2970;18;20;37;Sud;-2;"Soleil en t&amp;ecirc;te ";3462;45.22;5.78;38240
4800;20;35;36;45;7;Perma Batteries;5379;46.17;5.84;1200
21620;139;5;37;90;0;Billon SAS;22045;45.74;4.86;69008
3000;17;15;36;-5;0;maison innovante;3319;46.22;4.88;1290
0;22;30;;Sud;;a+energie;0;45.59;5.22;38080
3000;12;35;37;-15;0;maison solaire voltavia;3541;45.69;4.79;69230
6000;29;5;36;-90;1;FSE;5890;46.42;4.96;1190
2430;8;45;37;Sud;-1;non;2878;45.75;4.70;69290
2940;23;20;37;80;0;SOPAC TOUTENSOLEIL;2971;45.86;4.74;69380
1800;20;30;37;30;-10;ARTEIS-SOLAIRE;1920;45.43;6.00;38530
750;3;10;32;45;4;Aucun;741;45.19;5.81;38420
3000;14;35;36;Sud;-2;CAPECO INSTAL;3332;45.50;4.57;42420
6000;30;15;36;-180;-2;isowatt;5086;45.68;4.77;69530
1220;15;35;36;-120;-2;EVASOL;961;45.52;4.25;42160
1600;7;30;36;Sud;-4;diy;1760;45.39;5.69;38380
6000;32;30;37;90;-2;"Fauch&amp;eacute; ";5694;45.66;4.21;42210
4000;18;25;37;Sud;0;Nous;4674;46.02;4.79;1480
3000;23;40;35;130;-1;groupe free energie;2025;45.42;4.40;42100
400;2;40;32;40;13;auto;417;45.08;5.79;38220
880;8;30;36;10;1;auto;1003;46.49;4.97;1190
7500;40;20;37;-85;0;tecwatt;7469;46.07;4.75;1090
300;2;15;37;-25;0;moi meme;337;45.78;4.88;69100
750;4;45;34;-45;-2;moi;751;45.41;4.38;42100
6720;32;35;37;130;-4;cap eco energy;4892;45.58;4.07;42600
4000;17;35;37;Sud;1;self;4833;45.83;4.94;1700
